{"type": "FeatureCollection", "metadata": {"title": "GDELT-GKG-Einschlag-Erwaehnungen (Region + Zeitfenster, je Ort aggregiert)", "lookback_months": 12, "start_date": "2025-06-01", "source": "GDELT Project, GKG 1.0 (open data)", "radius_km": 30.0, "note": "Indikative, medienbasierte Einschlag-Berichterstattung (stadtgenau) im 30-km-Radius einer Site; je Ort aggregiert (days = Tage mit Berichterstattung, ein Treffer je Ort je Tag, Medien-Megafon entfernt). Fliesst kombiniert mit UCDP in die Konflikt-Score-Komponente ein."}, "features": [{"type": "Feature", "geometry": {"type": "Point", "coordinates": [34.3333, 31.4167]}, "properties": {"location_name": "Gaza, Israel (General), Israel", "days": 360}}, {"type": "Feature", "geometry": {"type": "Point", "coordinates": [51.5148, 35.75]}, "properties": {"location_name": "Tehran, Tehran, Iran", "days": 326}}, {"type": "Feature", "geometry": {"type": "Point", "coordinates": [35.2333, 31.7667]}, "properties": {"location_name": "Jerusalem, Israel (General), Israel", "days": 298}}, {"type": "Feature", "geometry": {"type": "Point", "coordinates": [34.7667, 32.0667]}, "properties": {"location_name": "Tel Aviv, Tel Aviv, Israel", "days": 298}}, {"type": "Feature", "geometry": {"type": "Point", "coordinates": [31.25, 30.05]}, "properties": {"location_name": "Cairo, Al Qahirah, Egypt", "days": 180}}, {"type": "Feature", "geometry": {"type": "Point", "coordinates": [51.6714, 32.6597]}, "properties": {"location_name": "Isfahan, Esfahan, Iran", "days": 141}}, {"type": "Feature", "geometry": {"type": "Point", "coordinates": [46.7728, 24.6408]}, "properties": {"location_name": "Riyadh, Ar Riya?, Saudi Arabia", "days": 133}}, {"type": "Feature", "geometry": {"type": "Point", "coordinates": [34.2311, 31.3292]}, "properties": {"location_name": "Rafah, Gaza Strip (General), Gaza Strip", "days": 131}}, {"type": "Feature", "geometry": {"type": "Point", "coordinates": [36.3, 33.5]}, "properties": {"location_name": "Damascus, Dimashq, Syria", "days": 125}}, {"type": "Feature", "geometry": {"type": "Point", "coordinates": [44.2067, 15.3547]}, "properties": {"location_name": "Sanaa, SanA', Yemen", "days": 114}}, {"type": "Feature", "geometry": {"type": "Point", "coordinates": [35.7991, 34.1252]}, "properties": {"location_name": "Jbeil, Mont-Liban, Lebanon", "days": 99}}, {"type": "Feature", "geometry": {"type": "Point", "coordinates": [34.8867, 32.0114]}, "properties": {"location_name": "Ben Gurion, Hamerkaz, Israel", "days": 92}}, {"type": "Feature", "geometry": {"type": "Point", "coordinates": [34.3925, 31.4486]}, "properties": {"location_name": "Nuseirat, Gaza Strip (General), Gaza Strip", "days": 85}}, {"type": "Feature", "geometry": {"type": "Point", "coordinates": [36.0, 33.8333]}, "properties": {"location_name": "Bekaa Valley, BéA, Lebanon", "days": 74}}, {"type": "Feature", "geometry": {"type": "Point", "coordinates": [34.3063, 31.3402]}, "properties": {"location_name": "Khan Yunis, Gaza Strip (General), Gaza Strip", "days": 70}}, {"type": "Feature", "geometry": {"type": "Point", "coordinates": [44.0106, 36.1926]}, "properties": {"location_name": "Erbil, Liwa' Irbil, Iraq", "days": 69}}, {"type": "Feature", "geometry": {"type": "Point", "coordinates": [35.3333, 32.9]}, "properties": {"location_name": "Galilee, Ha?Afon, Israel", "days": 69}}, {"type": "Feature", "geometry": {"type": "Point", "coordinates": [34.6809, 31.7444]}, "properties": {"location_name": "Ashdod, Hadarom, Israel", "days": 68}}, {"type": "Feature", "geometry": {"type": "Point", "coordinates": [34.7863, 31.2516]}, "properties": {"location_name": "Beersheba, Hadarom, Israel", "days": 63}}, {"type": "Feature", "geometry": {"type": "Point", "coordinates": [34.2369, 31.2878]}, "properties": {"location_name": "Rafah, Shamal Sina', Egypt", "days": 57}}, {"type": "Feature", "geometry": {"type": "Point", "coordinates": [35.1955, 31.9026]}, "properties": {"location_name": "Ramallah, West Bank (General), West Bank", "days": 56}}, {"type": "Feature", "geometry": {"type": "Point", "coordinates": [35.9333, 31.95]}, "properties": {"location_name": "Amman, (Jo11), Jordan", "days": 55}}, {"type": "Feature", "geometry": {"type": "Point", "coordinates": [34.4945, 31.5364]}, "properties": {"location_name": "Jabalia, Gaza Strip (General), Gaza Strip", "days": 54}}, {"type": "Feature", "geometry": {"type": "Point", "coordinates": [34.4411, 31.5119]}, "properties": {"location_name": "Unrwa, Gaza Strip (General), Gaza Strip", "days": 49}}, {"type": "Feature", "geometry": {"type": "Point", "coordinates": [50.5831, 26.2361]}, "properties": {"location_name": "Manama, Al Manamah, Bahrain", "days": 44}}, {"type": "Feature", "geometry": {"type": "Point", "coordinates": [46.2919, 38.08]}, "properties": {"location_name": "Tabriz, Az¯Arbayjan-E Sharqi, Iran", "days": 44}}, {"type": "Feature", "geometry": {"type": "Point", "coordinates": [36.2181, 34.0058]}, "properties": {"location_name": "Baalbek, Mohafazat Baalbek-Hermel, Lebanon", "days": 44}}, {"type": "Feature", "geometry": {"type": "Point", "coordinates": [35.1397, 33.1181]}, "properties": {"location_name": "Naqoura, Liban-Sud, Lebanon", "days": 42}}, {"type": "Feature", "geometry": {"type": "Point", "coordinates": [34.9333, 31.7333]}, "properties": {"location_name": "Bureij, Yerushalayim, Israel", "days": 42}}, {"type": "Feature", "geometry": {"type": "Point", "coordinates": [31.3481, 30.0643]}, "properties": {"location_name": "World Health Organization, Al Qahirah, Egypt", "days": 40}}, {"type": "Feature", "geometry": {"type": "Point", "coordinates": [52.5388, 29.6036]}, "properties": {"location_name": "Shiraz, Fars, Iran", "days": 39}}, {"type": "Feature", "geometry": {"type": "Point", "coordinates": [37.1586, 36.2028]}, "properties": {"location_name": "Aleppo, ?Alab, Syria", "days": 39}}, {"type": "Feature", "geometry": {"type": "Point", "coordinates": [35.1, 31.5333]}, "properties": {"location_name": "Hebron, Israel (General), Israel", "days": 37}}, {"type": "Feature", "geometry": {"type": "Point", "coordinates": [39.2192, 21.5169]}, "properties": {"location_name": "Jeddah, Makkah, Saudi Arabia", "days": 34}}, {"type": "Feature", "geometry": {"type": "Point", "coordinates": [34.9888, 31.7496]}, "properties": {"location_name": "Beit Shemesh, Yerushalayim, Israel", "days": 34}}, {"type": "Feature", "geometry": {"type": "Point", "coordinates": [35.0333, 31.0667]}, "properties": {"location_name": "Dimona, Hadarom, Israel", "days": 33}}, {"type": "Feature", "geometry": {"type": "Point", "coordinates": [34.8142, 32.0806]}, "properties": {"location_name": "Ramat Gan, Tel Aviv, Israel", "days": 33}}, {"type": "Feature", "geometry": {"type": "Point", "coordinates": [34.45, 31.4833]}, "properties": {"location_name": "Netzarim, Gaza Strip (General), Gaza Strip", "days": 31}}, {"type": "Feature", "geometry": {"type": "Point", "coordinates": [34.4031, 31.4394]}, "properties": {"location_name": "Al-Bureij, Gaza Strip (General), Gaza Strip", "days": 29}}, {"type": "Feature", "geometry": {"type": "Point", "coordinates": [35.5, 31.5]}, "properties": {"location_name": "Dead Sea, Israel (General), Israel", "days": 29}}, {"type": "Feature", "geometry": {"type": "Point", "coordinates": [34.8186, 31.8969]}, "properties": {"location_name": "Rehovot, Hamerkaz, Israel", "days": 25}}, {"type": "Feature", "geometry": {"type": "Point", "coordinates": [54.3675, 31.8972]}, "properties": {"location_name": "Yazd, Yazd, Iran", "days": 25}}, {"type": "Feature", "geometry": {"type": "Point", "coordinates": [36.5695, 32.709]}, "properties": {"location_name": "Sweida, As Suwayda', Syria", "days": 22}}, {"type": "Feature", "geometry": {"type": "Point", "coordinates": [51.4216, 35.705]}, "properties": {"location_name": "Teheran, Iran (General), Iran", "days": 21}}, {"type": "Feature", "geometry": {"type": "Point", "coordinates": [36.6339, 35.9306]}, "properties": {"location_name": "Idlib, Idlib, Syria", "days": 20}}, {"type": "Feature", "geometry": {"type": "Point", "coordinates": [34.385, 31.4223]}, "properties": {"location_name": "Maghazi, Gaza Strip (General), Gaza Strip", "days": 20}}, {"type": "Feature", "geometry": {"type": "Point", "coordinates": [35.4419, 33.3747]}, "properties": {"location_name": "Harouf, Nabatî, Lebanon", "days": 19}}, {"type": "Feature", "geometry": {"type": "Point", "coordinates": [34.3234, 31.3434]}, "properties": {"location_name": "Bani Suheila, Gaza Strip (General), Gaza Strip", "days": 19}}, {"type": "Feature", "geometry": {"type": "Point", "coordinates": [55.1322, 30.064]}, "properties": {"location_name": "Mehrabad, Kerman, Iran", "days": 18}}, {"type": "Feature", "geometry": {"type": "Point", "coordinates": [31.2332, 30.0445]}, "properties": {"location_name": "Arab League, Al Qahirah, Egypt", "days": 17}}, {"type": "Feature", "geometry": {"type": "Point", "coordinates": [34.2846, 31.2278]}, "properties": {"location_name": "Kerem Shalom, Hadarom, Israel", "days": 17}}, {"type": "Feature", "geometry": {"type": "Point", "coordinates": [34.6799, 31.733]}, "properties": {"location_name": "Givati, Hadarom, Israel", "days": 16}}, {"type": "Feature", "geometry": {"type": "Point", "coordinates": [36.8153, 31.8327]}, "properties": {"location_name": "Azraq, Jordan (General), Jordan", "days": 16}}, {"type": "Feature", "geometry": {"type": "Point", "coordinates": [35.2992, 32.9167]}, "properties": {"location_name": "Karmiel, Ha?Afon, Israel", "days": 16}}, {"type": "Feature", "geometry": {"type": "Point", "coordinates": [35.3328, 33.1342]}, "properties": {"location_name": "Beit Lif, Nabatî, Lebanon", "days": 16}}, {"type": "Feature", "geometry": {"type": "Point", "coordinates": [34.3503, 31.4178]}, "properties": {"location_name": "Deir El-Balah, Gaza Strip (General), Gaza Strip", "days": 16}}, {"type": "Feature", "geometry": {"type": "Point", "coordinates": [34.8821, 31.2242]}, "properties": {"location_name": "Nevatim, Hadarom, Israel", "days": 16}}, {"type": "Feature", "geometry": {"type": "Point", "coordinates": [54.0924, 17.015]}, "properties": {"location_name": "Salalah, Z¸Ufar, Oman", "days": 15}}, {"type": "Feature", "geometry": {"type": "Point", "coordinates": [35.2032, 32.6784]}, "properties": {"location_name": "Ramat David, Ha?Afon, Israel", "days": 15}}, {"type": "Feature", "geometry": {"type": "Point", "coordinates": [35.1461, 33.0747]}, "properties": {"location_name": "Shlomi, Ha?Afon, Israel", "days": 15}}, {"type": "Feature", "geometry": {"type": "Point", "coordinates": [48.5146, 34.7992]}, "properties": {"location_name": "Hamedan, Hamadan, Iran", "days": 15}}, {"type": "Feature", "geometry": {"type": "Point", "coordinates": [48.402, 32.3825]}, "properties": {"location_name": "Dezful, Khuzestan, Iran", "days": 15}}, {"type": "Feature", "geometry": {"type": "Point", "coordinates": [48.3558, 33.4878]}, "properties": {"location_name": "Khorramabad, Lorestan, Iran", "days": 15}}, {"type": "Feature", "geometry": {"type": "Point", "coordinates": [50.6206, 26.1547]}, "properties": {"location_name": "Sitra, Al WustáA, Bahrain", "days": 15}}, {"type": "Feature", "geometry": {"type": "Point", "coordinates": [34.9458, 32.0942]}, "properties": {"location_name": "Rosh Haayin, Hamerkaz, Israel", "days": 14}}, {"type": "Feature", "geometry": {"type": "Point", "coordinates": [34.8669, 31.9253]}, "properties": {"location_name": "Ramla, Hamerkaz, Israel", "days": 14}}, {"type": "Feature", "geometry": {"type": "Point", "coordinates": [50.5506, 26.0844]}, "properties": {"location_name": "Bapco, Al Janubiyah, Bahrain", "days": 14}}, {"type": "Feature", "geometry": {"type": "Point", "coordinates": [34.6667, 31.6333]}, "properties": {"location_name": "Kochav, Hadarom, Israel", "days": 14}}, {"type": "Feature", "geometry": {"type": "Point", "coordinates": [35.4322, 33.3642]}, "properties": {"location_name": "Jibchit, Nabatî, Lebanon", "days": 14}}, {"type": "Feature", "geometry": {"type": "Point", "coordinates": [35.7231, 33.8733]}, "properties": {"location_name": "Hasbaya, Mont-Liban, Lebanon", "days": 14}}, {"type": "Feature", "geometry": {"type": "Point", "coordinates": [34.8044, 31.9642]}, "properties": {"location_name": "Rishon Lezion, Hamerkaz, Israel", "days": 14}}, {"type": "Feature", "geometry": {"type": "Point", "coordinates": [35.5131, 33.2333]}, "properties": {"location_name": "Markaba, Nabatî, Lebanon", "days": 13}}, {"type": "Feature", "geometry": {"type": "Point", "coordinates": [34.3333, 31.2167]}, "properties": {"location_name": "Morag, Gaza Strip (General), Gaza Strip", "days": 13}}, {"type": "Feature", "geometry": {"type": "Point", "coordinates": [34.9856, 31.9339]}, "properties": {"location_name": "Modiin, Israel (General), Israel", "days": 12}}, {"type": "Feature", "geometry": {"type": "Point", "coordinates": [35.2849, 33.0843]}, "properties": {"location_name": "Shomera, Ha?Afon, Israel", "days": 12}}, {"type": "Feature", "geometry": {"type": "Point", "coordinates": [35.1773, 31.8984]}, "properties": {"location_name": "Unrwa, West Bank (General), West Bank", "days": 12}}, {"type": "Feature", "geometry": {"type": "Point", "coordinates": [35.7175, 34.0953]}, "properties": {"location_name": "Zebdine, Mont-Liban, Lebanon", "days": 12}}, {"type": "Feature", "geometry": {"type": "Point", "coordinates": [34.8861, 32.035]}, "properties": {"location_name": "Yehud, Hamerkaz, Israel", "days": 11}}, {"type": "Feature", "geometry": {"type": "Point", "coordinates": [35.2201, 33.0637]}, "properties": {"location_name": "Elon, Ha?Afon, Israel", "days": 11}}, {"type": "Feature", "geometry": {"type": "Point", "coordinates": [34.9358, 32.1817]}, "properties": {"location_name": "Kfar Saba, Hamerkaz, Israel", "days": 11}}, {"type": "Feature", "geometry": {"type": "Point", "coordinates": [44.197, 15.3497]}, "properties": {"location_name": "Ministry Of Foreign Affairs, Amanat Al `Asimah, Yemen", "days": 11}}, {"type": "Feature", "geometry": {"type": "Point", "coordinates": [35.39, 33.1653]}, "properties": {"location_name": "Haddatha, Nabatî, Lebanon", "days": 10}}, {"type": "Feature", "geometry": {"type": "Point", "coordinates": [35.4006, 33.325]}, "properties": {"location_name": "Kfar Sir, Nabatî, Lebanon", "days": 10}}, {"type": "Feature", "geometry": {"type": "Point", "coordinates": [35.2494, 32.8605]}, "properties": {"location_name": "Misgav, Ha?Afon, Israel", "days": 10}}, {"type": "Feature", "geometry": {"type": "Point", "coordinates": [51.4256, 35.8044]}, "properties": {"location_name": "Tajrish, Tehran, Iran", "days": 10}}, {"type": "Feature", "geometry": {"type": "Point", "coordinates": [50.6119, 26.2572]}, "properties": {"location_name": "Muharraq, Al Mu?Arraq, Bahrain", "days": 9}}, {"type": "Feature", "geometry": {"type": "Point", "coordinates": [31.2326, 30.0433]}, "properties": {"location_name": "Ministry Of Foreign Affairs, Al Qahirah, Egypt", "days": 9}}, {"type": "Feature", "geometry": {"type": "Point", "coordinates": [34.4041, 31.4385]}, "properties": {"location_name": "Bureij, Gaza Strip (General), Gaza Strip", "days": 9}}, {"type": "Feature", "geometry": {"type": "Point", "coordinates": [34.8467, 32.0753]}, "properties": {"location_name": "Givat Shmuel, Hamerkaz, Israel", "days": 9}}, {"type": "Feature", "geometry": {"type": "Point", "coordinates": [35.3967, 33.2814]}, "properties": {"location_name": "Srifa, Liban-Sud, Lebanon", "days": 9}}, {"type": "Feature", "geometry": {"type": "Point", "coordinates": [35.2837, 33.0134]}, "properties": {"location_name": "Maalot-Tarshiha, Ha?Afon, Israel", "days": 9}}, {"type": "Feature", "geometry": {"type": "Point", "coordinates": [35.3994, 33.2583]}, "properties": {"location_name": "Deir Kifa, Liban-Sud, Lebanon", "days": 9}}, {"type": "Feature", "geometry": {"type": "Point", "coordinates": [35.1662, 32.5017]}, "properties": {"location_name": "Sheikh Radwan, West Bank (General), West Bank", "days": 9}}, {"type": "Feature", "geometry": {"type": "Point", "coordinates": [35.3967, 33.2397]}, "properties": {"location_name": "Kfar Dounine, Nabatî, Lebanon", "days": 8}}, {"type": "Feature", "geometry": {"type": "Point", "coordinates": [51.7291, 35.6639]}, "properties": {"location_name": "Khojir, Tehran, Iran", "days": 8}}, {"type": "Feature", "geometry": {"type": "Point", "coordinates": [34.2987, 31.3551]}, "properties": {"location_name": "Al-Amal, Gaza Strip (General), Gaza Strip", "days": 8}}, {"type": "Feature", "geometry": {"type": "Point", "coordinates": [34.8367, 32.1658]}, "properties": {"location_name": "Herzliya, Tel Aviv, Israel", "days": 8}}, {"type": "Feature", "geometry": {"type": "Point", "coordinates": [35.3947, 33.4436]}, "properties": {"location_name": "Zefta, Nabatî, Lebanon", "days": 8}}, {"type": "Feature", "geometry": {"type": "Point", "coordinates": [35.4369, 33.25]}, "properties": {"location_name": "Touline, Nabatî, Lebanon", "days": 8}}, {"type": "Feature", "geometry": {"type": "Point", "coordinates": [34.7647, 32.0678]}, "properties": {"location_name": "Jaffa Tel Aviv, Tel Aviv, Israel", "days": 8}}, {"type": "Feature", "geometry": {"type": "Point", "coordinates": [39.1794, 21.5236]}, "properties": {"location_name": "Ruwais, Makkah, Saudi Arabia", "days": 8}}, {"type": "Feature", "geometry": {"type": "Point", "coordinates": [34.4951, 31.5464]}, "properties": {"location_name": "Beit Lahiya, Gaza Strip (General), Gaza Strip", "days": 8}}, {"type": "Feature", "geometry": {"type": "Point", "coordinates": [34.5969, 31.525]}, "properties": {"location_name": "Sderot, Hadarom, Israel", "days": 8}}, {"type": "Feature", "geometry": {"type": "Point", "coordinates": [35.3383, 33.1214]}, "properties": {"location_name": "Al Qawzah, Nabatî, Lebanon", "days": 8}}, {"type": "Feature", "geometry": {"type": "Point", "coordinates": [34.3984, 31.3749]}, "properties": {"location_name": "Kissufim, Hadarom, Israel", "days": 7}}, {"type": "Feature", "geometry": {"type": "Point", "coordinates": [45.3253, 15.461]}, "properties": {"location_name": "Marib, Ma'rib, Yemen", "days": 7}}, {"type": "Feature", "geometry": {"type": "Point", "coordinates": [54.3817, 31.8999]}, "properties": {"location_name": "Sarsang, Yazd, Iran", "days": 7}}, {"type": "Feature", "geometry": {"type": "Point", "coordinates": [36.1494, 33.9342]}, "properties": {"location_name": "Brital, Mohafazat Baalbek-Hermel, Lebanon", "days": 7}}, {"type": "Feature", "geometry": {"type": "Point", "coordinates": [35.2742, 33.4047]}, "properties": {"location_name": "Adloun, Liban-Sud, Lebanon", "days": 7}}, {"type": "Feature", "geometry": {"type": "Point", "coordinates": [35.4106, 33.1933]}, "properties": {"location_name": "Tibnin, Nabatî, Lebanon", "days": 7}}, {"type": "Feature", "geometry": {"type": "Point", "coordinates": [35.2889, 33.0995]}, "properties": {"location_name": "Zarit, Ha?Afon, Israel", "days": 7}}, {"type": "Feature", "geometry": {"type": "Point", "coordinates": [35.3289, 33.205]}, "properties": {"location_name": "Bayada, Liban-Sud, Lebanon", "days": 7}}, {"type": "Feature", "geometry": {"type": "Point", "coordinates": [34.8117, 32.0697]}, "properties": {"location_name": "Givatayim, Tel Aviv, Israel", "days": 7}}, {"type": "Feature", "geometry": {"type": "Point", "coordinates": [36.0194, 34.5531]}, "properties": {"location_name": "Kfarmelki, AakkâLe, Lebanon", "days": 7}}, {"type": "Feature", "geometry": {"type": "Point", "coordinates": [35.4678, 33.1933]}, "properties": {"location_name": "Shaqra, Nabatî, Lebanon", "days": 7}}, {"type": "Feature", "geometry": {"type": "Point", "coordinates": [35.9667, 33.7]}, "properties": {"location_name": "Masnaa, Rif Dimashq, Syria", "days": 7}}, {"type": "Feature", "geometry": {"type": "Point", "coordinates": [35.4331, 33.2003]}, "properties": {"location_name": "Safad Al-Battikh, Nabatî, Lebanon", "days": 7}}, {"type": "Feature", "geometry": {"type": "Point", "coordinates": [34.3951, 31.3356]}, "properties": {"location_name": "Nirim, Hadarom, Israel", "days": 7}}, {"type": "Feature", "geometry": {"type": "Point", "coordinates": [31.2374, 30.0391]}, "properties": {"location_name": "Ministry Of Health, Al Qahirah, Egypt", "days": 6}}, {"type": "Feature", "geometry": {"type": "Point", "coordinates": [50.6214, 26.1567]}, "properties": {"location_name": "Sitra Island, Al WustáA, Bahrain", "days": 6}}, {"type": "Feature", "geometry": {"type": "Point", "coordinates": [54.1653, 17.0425]}, "properties": {"location_name": "Dhofar, Z¸Ufar, Oman", "days": 6}}, {"type": "Feature", "geometry": {"type": "Point", "coordinates": [35.1981, 31.7734]}, "properties": {"location_name": "Hebrew University, Yerushalayim, Israel", "days": 6}}, {"type": "Feature", "geometry": {"type": "Point", "coordinates": [35.4225, 33.0803]}, "properties": {"location_name": "Yaroun, Nabatî, Lebanon", "days": 6}}, {"type": "Feature", "geometry": {"type": "Point", "coordinates": [35.1987, 32.853]}, "properties": {"location_name": "Tamra, Ha?Afon, Israel", "days": 6}}, {"type": "Feature", "geometry": {"type": "Point", "coordinates": [35.2239, 33.1864]}, "properties": {"location_name": "Hanine, Liban-Sud, Lebanon", "days": 6}}, {"type": "Feature", "geometry": {"type": "Point", "coordinates": [35.3036, 33.2606]}, "properties": {"location_name": "Yanouh, Liban-Sud, Lebanon", "days": 6}}, {"type": "Feature", "geometry": {"type": "Point", "coordinates": [35.4253, 33.23]}, "properties": {"location_name": "Khirbet Selm, Nabatî, Lebanon", "days": 6}}, {"type": "Feature", "geometry": {"type": "Point", "coordinates": [36.1075, 33.8575]}, "properties": {"location_name": "Janta, Mohafazat Baalbek-Hermel, Lebanon", "days": 6}}, {"type": "Feature", "geometry": {"type": "Point", "coordinates": [35.4433, 33.1761]}, "properties": {"location_name": "Baraachit, Nabatî, Lebanon", "days": 6}}, {"type": "Feature", "geometry": {"type": "Point", "coordinates": [34.9156, 32.0839]}, "properties": {"location_name": "Beilinson, Hamerkaz, Israel", "days": 6}}, {"type": "Feature", "geometry": {"type": "Point", "coordinates": [35.2681, 33.2331]}, "properties": {"location_name": "Ain Baal, Liban-Sud, Lebanon", "days": 6}}, {"type": "Feature", "geometry": {"type": "Point", "coordinates": [34.4835, 31.5272]}, "properties": {"location_name": "Jabaliya, Gaza Strip (General), Gaza Strip", "days": 6}}, {"type": "Feature", "geometry": {"type": "Point", "coordinates": [34.3408, 31.3739]}, "properties": {"location_name": "Al-Qarara, Gaza Strip (General), Gaza Strip", "days": 6}}, {"type": "Feature", "geometry": {"type": "Point", "coordinates": [35.0999, 31.5289]}, "properties": {"location_name": "Palestinian Red Crescent, West Bank (General), West Bank", "days": 6}}, {"type": "Feature", "geometry": {"type": "Point", "coordinates": [35.2978, 33.2939]}, "properties": {"location_name": "Toura, Liban-Sud, Lebanon", "days": 6}}, {"type": "Feature", "geometry": {"type": "Point", "coordinates": [35.2669, 33.1656]}, "properties": {"location_name": "Zibqin, Liban-Sud, Lebanon", "days": 6}}, {"type": "Feature", "geometry": {"type": "Point", "coordinates": [35.3667, 33.1667]}, "properties": {"location_name": "Jabal Amel, Nabatî, Lebanon", "days": 6}}, {"type": "Feature", "geometry": {"type": "Point", "coordinates": [35.4764, 33.3472]}, "properties": {"location_name": "Maifadoun, Nabatî, Lebanon", "days": 5}}, {"type": "Feature", "geometry": {"type": "Point", "coordinates": [35.2409, 32.8894]}, "properties": {"location_name": "Shaab, Ha?Afon, Israel", "days": 5}}, {"type": "Feature", "geometry": {"type": "Point", "coordinates": [35.6914, 34.2861]}, "properties": {"location_name": "Hamat, Liban-Nord, Lebanon", "days": 5}}, {"type": "Feature", "geometry": {"type": "Point", "coordinates": [35.3472, 33.2858]}, "properties": {"location_name": "Maaroub, Liban-Sud, Lebanon", "days": 5}}, {"type": "Feature", "geometry": {"type": "Point", "coordinates": [34.9333, 32.65]}, "properties": {"location_name": "Sarafand, H_efa, Israel", "days": 5}}, {"type": "Feature", "geometry": {"type": "Point", "coordinates": [35.3747, 33.2194]}, "properties": {"location_name": "Deir Antar, Nabatî, Lebanon", "days": 5}}, {"type": "Feature", "geometry": {"type": "Point", "coordinates": [35.4919, 33.8817]}, "properties": {"location_name": "Mar Elias, Beyrouth, Lebanon", "days": 5}}, {"type": "Feature", "geometry": {"type": "Point", "coordinates": [46.3565, 35.0434]}, "properties": {"location_name": "Paveh, Kermanshah, Iran", "days": 5}}, {"type": "Feature", "geometry": {"type": "Point", "coordinates": [34.4403, 31.5132]}, "properties": {"location_name": "Islamic University, Gaza Strip (General), Gaza Strip", "days": 5}}, {"type": "Feature", "geometry": {"type": "Point", "coordinates": [34.4028, 31.2473]}, "properties": {"location_name": "Yesha, Hadarom, Israel", "days": 5}}, {"type": "Feature", "geometry": {"type": "Point", "coordinates": [35.1145, 33.0854]}, "properties": {"location_name": "Rosh Hanikra, Ha?Afon, Israel", "days": 5}}, {"type": "Feature", "geometry": {"type": "Point", "coordinates": [34.704, 31.6369]}, "properties": {"location_name": "Lakhish, Hadarom, Israel", "days": 5}}, {"type": "Feature", "geometry": {"type": "Point", "coordinates": [43.397, 35.6554]}, "properties": {"location_name": "Ankawa, Liwa' Irbil, Iraq", "days": 5}}, {"type": "Feature", "geometry": {"type": "Point", "coordinates": [35.5039, 33.8911]}, "properties": {"location_name": "Bachoura, Beyrouth, Lebanon", "days": 5}}, {"type": "Feature", "geometry": {"type": "Point", "coordinates": [35.4361, 33.1489]}, "properties": {"location_name": "Kounine, Nabatî, Lebanon", "days": 5}}, {"type": "Feature", "geometry": {"type": "Point", "coordinates": [34.8489, 31.5655]}, "properties": {"location_name": "Lachish, Hadarom, Israel", "days": 5}}, {"type": "Feature", "geometry": {"type": "Point", "coordinates": [44.2012, 15.3592]}, "properties": {"location_name": "Ministry Of Interior, Amanat Al `Asimah, Yemen", "days": 4}}, {"type": "Feature", "geometry": {"type": "Point", "coordinates": [50.6264, 26.2728]}, "properties": {"location_name": "Bahrain International Airport, Al Mu?Arraq, Bahrain", "days": 4}}, {"type": "Feature", "geometry": {"type": "Point", "coordinates": [47.6167, 30.7667]}, "properties": {"location_name": "Rumaila, Al Basrah, Iraq", "days": 4}}, {"type": "Feature", "geometry": {"type": "Point", "coordinates": [34.4398, 31.5017]}, "properties": {"location_name": "Civil Defence, Gaza Strip (General), Gaza Strip", "days": 4}}, {"type": "Feature", "geometry": {"type": "Point", "coordinates": [51.5689, 35.4394]}, "properties": {"location_name": "Qarchak, Tehran, Iran", "days": 4}}, {"type": "Feature", "geometry": {"type": "Point", "coordinates": [51.4914, 35.732]}, "properties": {"location_name": "Narmak, Tehran, Iran", "days": 4}}, {"type": "Feature", "geometry": {"type": "Point", "coordinates": [50.5678, 26.2372]}, "properties": {"location_name": "Bahrain Harbour, Bahrain (General), Bahrain", "days": 4}}, {"type": "Feature", "geometry": {"type": "Point", "coordinates": [44.2052, 15.3533]}, "properties": {"location_name": "Ministry Of Health, Amanat Al `Asimah, Yemen", "days": 4}}, {"type": "Feature", "geometry": {"type": "Point", "coordinates": [34.7491, 31.6248]}, "properties": {"location_name": "Faluja, Hadarom, Israel", "days": 4}}, {"type": "Feature", "geometry": {"type": "Point", "coordinates": [34.755, 31.3934]}, "properties": {"location_name": "Rahat, Hadarom, Israel", "days": 4}}, {"type": "Feature", "geometry": {"type": "Point", "coordinates": [34.4978, 31.4732]}, "properties": {"location_name": "Nahal Oz, Hadarom, Israel", "days": 4}}, {"type": "Feature", "geometry": {"type": "Point", "coordinates": [35.5075, 33.2908]}, "properties": {"location_name": "Deir Siriane, Nabatî, Lebanon", "days": 4}}, {"type": "Feature", "geometry": {"type": "Point", "coordinates": [34.78, 31.8146]}, "properties": {"location_name": "Gedera, Hamerkaz, Israel", "days": 4}}, {"type": "Feature", "geometry": {"type": "Point", "coordinates": [36.3408, 33.4881]}, "properties": {"location_name": "Jaramana, Dimashq, Syria", "days": 4}}, {"type": "Feature", "geometry": {"type": "Point", "coordinates": [34.5637, 31.5013]}, "properties": {"location_name": "Mefalsim, Hadarom, Israel", "days": 4}}, {"type": "Feature", "geometry": {"type": "Point", "coordinates": [34.8696, 31.3795]}, "properties": {"location_name": "Lahav, Hadarom, Israel", "days": 4}}, {"type": "Feature", "geometry": {"type": "Point", "coordinates": [34.8672, 32.1808]}, "properties": {"location_name": "Raanana, Hamerkaz, Israel", "days": 4}}, {"type": "Feature", "geometry": {"type": "Point", "coordinates": [34.7756, 32.1019]}, "properties": {"location_name": "Yarkon, Israel (General), Israel", "days": 4}}, {"type": "Feature", "geometry": {"type": "Point", "coordinates": [35.5008, 33.8961]}, "properties": {"location_name": "Grand Serail, Beyrouth, Lebanon", "days": 4}}, {"type": "Feature", "geometry": {"type": "Point", "coordinates": [35.9896, 34.7517]}, "properties": {"location_name": "Qusayr, Tartus, Syria", "days": 4}}, {"type": "Feature", "geometry": {"type": "Point", "coordinates": [36.0811, 34.1869]}, "properties": {"location_name": "Ainata, Mohafazat Baalbek-Hermel, Lebanon", "days": 4}}, {"type": "Feature", "geometry": {"type": "Point", "coordinates": [34.6103, 31.5336]}, "properties": {"location_name": "Ibim, Hadarom, Israel", "days": 4}}, {"type": "Feature", "geometry": {"type": "Point", "coordinates": [35.3489, 33.2506]}, "properties": {"location_name": "Debaal, Liban-Sud, Lebanon", "days": 4}}, {"type": "Feature", "geometry": {"type": "Point", "coordinates": [35.3436, 33.2194]}, "properties": {"location_name": "Mahrouna, Liban-Sud, Lebanon", "days": 4}}, {"type": "Feature", "geometry": {"type": "Point", "coordinates": [35.3356, 33.2014]}, "properties": {"location_name": "Deir Aames, Liban-Sud, Lebanon", "days": 4}}, {"type": "Feature", "geometry": {"type": "Point", "coordinates": [35.3149, 33.0852]}, "properties": {"location_name": "Shtula, Ha?Afon, Israel", "days": 4}}, {"type": "Feature", "geometry": {"type": "Point", "coordinates": [34.9667, 31.8333]}, "properties": {"location_name": "Demilitarized Zone, Israel (General), Israel", "days": 4}}, {"type": "Feature", "geometry": {"type": "Point", "coordinates": [35.2333, 31.8]}, "properties": {"location_name": "Sheikh Jarrah, Yerushalayim, Israel", "days": 4}}, {"type": "Feature", "geometry": {"type": "Point", "coordinates": [35.2186, 33.1272]}, "properties": {"location_name": "Tayr Harfa, Liban-Sud, Lebanon", "days": 4}}, {"type": "Feature", "geometry": {"type": "Point", "coordinates": [35.1736, 33.0875]}, "properties": {"location_name": "Hanita, Ha?Afon, Israel", "days": 4}}, {"type": "Feature", "geometry": {"type": "Point", "coordinates": [31.1, 30.1667]}, "properties": {"location_name": "Nile River, Egypt (General), Egypt", "days": 4}}, {"type": "Feature", "geometry": {"type": "Point", "coordinates": [51.2167, 26.1333]}, "properties": {"location_name": "Ruwais, Madinat Ash Shamal, Qatar", "days": 3}}, {"type": "Feature", "geometry": {"type": "Point", "coordinates": [57.05, 23.1]}, "properties": {"location_name": "Rafah, Ad Dakhiliyah, Oman", "days": 3}}, {"type": "Feature", "geometry": {"type": "Point", "coordinates": [29.5536, 30.9035]}, "properties": {"location_name": "Burj Al Arab, Al Iskandariyah, Egypt", "days": 3}}, {"type": "Feature", "geometry": {"type": "Point", "coordinates": [31.405, 30.0862]}, "properties": {"location_name": "Arab Organization For Industrialization, Al Qahirah, Egypt", "days": 3}}, {"type": "Feature", "geometry": {"type": "Point", "coordinates": [48.2382, 32.1616]}, "properties": {"location_name": "Kowsar, Khuzestan, Iran", "days": 3}}, {"type": "Feature", "geometry": {"type": "Point", "coordinates": [50.6117, 26.2106]}, "properties": {"location_name": "Jufair, Al Asimah, Bahrain", "days": 3}}, {"type": "Feature", "geometry": {"type": "Point", "coordinates": [50.6, 26.2167]}, "properties": {"location_name": "Mina Salman, Al Asimah, Bahrain", "days": 3}}, {"type": "Feature", "geometry": {"type": "Point", "coordinates": [50.5272, 26.0625]}, "properties": {"location_name": "Sakhir, Al Janubiyah, Bahrain", "days": 3}}, {"type": "Feature", "geometry": {"type": "Point", "coordinates": [34.4522, 31.5265]}, "properties": {"location_name": "Palestinian Central Bureau Of Statistics, Gaza Strip (General), Gaza Strip", "days": 3}}, {"type": "Feature", "geometry": {"type": "Point", "coordinates": [45.4122, 39.2089]}, "properties": {"location_name": "Nakhichevan, NaxçAn**, Azerbaijan", "days": 3}}, {"type": "Feature", "geometry": {"type": "Point", "coordinates": [44.2898, 15.248]}, "properties": {"location_name": "Hadrami, SanA', Yemen", "days": 3}}, {"type": "Feature", "geometry": {"type": "Point", "coordinates": [44.1977, 15.3285]}, "properties": {"location_name": "Indian Embassy, Amanat Al `Asimah, Yemen", "days": 3}}, {"type": "Feature", "geometry": {"type": "Point", "coordinates": [36.3181, 33.5094]}, "properties": {"location_name": "Bab Sharqi, Dimashq, Syria", "days": 3}}, {"type": "Feature", "geometry": {"type": "Point", "coordinates": [34.5138, 31.4523]}, "properties": {"location_name": "Alumim, Hadarom, Israel", "days": 3}}, {"type": "Feature", "geometry": {"type": "Point", "coordinates": [34.7198, 31.7708]}, "properties": {"location_name": "Hatzor, Hadarom, Israel", "days": 3}}, {"type": "Feature", "geometry": {"type": "Point", "coordinates": [36.0175, 33.9647]}, "properties": {"location_name": "Chmistar, Mohafazat Baalbek-Hermel, Lebanon", "days": 3}}, {"type": "Feature", "geometry": {"type": "Point", "coordinates": [36.0, 33.85]}, "properties": {"location_name": "Rayak, BéA, Lebanon", "days": 3}}, {"type": "Feature", "geometry": {"type": "Point", "coordinates": [35.8994, 34.3828]}, "properties": {"location_name": "Kfarhata, Liban-Nord, Lebanon", "days": 3}}, {"type": "Feature", "geometry": {"type": "Point", "coordinates": [35.187, 33.0675]}, "properties": {"location_name": "Yaara, Ha?Afon, Israel", "days": 3}}, {"type": "Feature", "geometry": {"type": "Point", "coordinates": [35.1749, 33.0643]}, "properties": {"location_name": "Bayyad, Ha?Afon, Israel", "days": 3}}, {"type": "Feature", "geometry": {"type": "Point", "coordinates": [35.1689, 32.8058]}, "properties": {"location_name": "Shfaram, Ha?Afon, Israel", "days": 3}}, {"type": "Feature", "geometry": {"type": "Point", "coordinates": [35.2138, 32.7275]}, "properties": {"location_name": "Zarzir, H_efa, Israel", "days": 3}}, {"type": "Feature", "geometry": {"type": "Point", "coordinates": [34.7833, 31.75]}, "properties": {"location_name": "Masmiyah, Hadarom, Israel", "days": 3}}, {"type": "Feature", "geometry": {"type": "Point", "coordinates": [35.5575, 31.7633]}, "properties": {"location_name": "Jordan River, Israel (General), Israel", "days": 3}}, {"type": "Feature", "geometry": {"type": "Point", "coordinates": [35.4562, 31.8568]}, "properties": {"location_name": "Greek Orthodox, West Bank (General), West Bank", "days": 3}}, {"type": "Feature", "geometry": {"type": "Point", "coordinates": [35.4383, 33.3428]}, "properties": {"location_name": "Kfar Dajjal, Nabatî, Lebanon", "days": 3}}, {"type": "Feature", "geometry": {"type": "Point", "coordinates": [34.8458, 32.0311]}, "properties": {"location_name": "Or Yehuda, Tel Aviv, Israel", "days": 3}}, {"type": "Feature", "geometry": {"type": "Point", "coordinates": [35.4033, 33.1108]}, "properties": {"location_name": "Ain Ebel, Nabatî, Lebanon", "days": 3}}, {"type": "Feature", "geometry": {"type": "Point", "coordinates": [35.4028, 33.1406]}, "properties": {"location_name": "At Tiri, Nabatî, Lebanon", "days": 3}}, {"type": "Feature", "geometry": {"type": "Point", "coordinates": [34.9426, 32.7107]}, "properties": {"location_name": "Falah, H_efa, Israel", "days": 3}}, {"type": "Feature", "geometry": {"type": "Point", "coordinates": [34.9424, 32.6889]}, "properties": {"location_name": "Atlit, H_efa, Israel", "days": 3}}, {"type": "Feature", "geometry": {"type": "Point", "coordinates": [34.9314, 30.9872]}, "properties": {"location_name": "Yeruham, Hadarom, Israel", "days": 3}}, {"type": "Feature", "geometry": {"type": "Point", "coordinates": [35.3706, 33.3]}, "properties": {"location_name": "Chehour, Liban-Sud, Lebanon", "days": 3}}, {"type": "Feature", "geometry": {"type": "Point", "coordinates": [35.2038, 31.7049]}, "properties": {"location_name": "Bethlehem, West Bank (General), West Bank", "days": 3}}, {"type": "Feature", "geometry": {"type": "Point", "coordinates": [35.0765, 32.9281]}, "properties": {"location_name": "Akko, Ha?Afon, Israel", "days": 3}}, {"type": "Feature", "geometry": {"type": "Point", "coordinates": [35.2458, 33.2222]}, "properties": {"location_name": "Deir Qanoun, Liban-Sud, Lebanon", "days": 3}}, {"type": "Feature", "geometry": {"type": "Point", "coordinates": [35.2814, 33.3097]}, "properties": {"location_name": "Burj Rahhal, Liban-Sud, Lebanon", "days": 3}}, {"type": "Feature", "geometry": {"type": "Point", "coordinates": [35.2758, 33.1089]}, "properties": {"location_name": "Marwahin, Liban-Sud, Lebanon", "days": 3}}, {"type": "Feature", "geometry": {"type": "Point", "coordinates": [31.2122, 30.0086]}, "properties": {"location_name": "Giza, Al Jizah, Egypt", "days": 3}}, {"type": "Feature", "geometry": {"type": "Point", "coordinates": [31.2159, 30.0307]}, "properties": {"location_name": "Security Department, Al Jizah, Egypt", "days": 3}}, {"type": "Feature", "geometry": {"type": "Point", "coordinates": [51.291, 35.5038]}, "properties": {"location_name": "Turquzabad, Tehran, Iran", "days": 3}}, {"type": "Feature", "geometry": {"type": "Point", "coordinates": [34.341, 31.2366]}, "properties": {"location_name": "Sufa, Hadarom, Israel", "days": 3}}, {"type": "Feature", "geometry": {"type": "Point", "coordinates": [35.5028, 33.88]}, "properties": {"location_name": "Al Mazraa, Beyrouth, Lebanon", "days": 2}}, {"type": "Feature", "geometry": {"type": "Point", "coordinates": [35.4225, 33.1592]}, "properties": {"location_name": "Beit Yahoun, Nabatî, Lebanon", "days": 2}}, {"type": "Feature", "geometry": {"type": "Point", "coordinates": [35.2572, 33.1258]}, "properties": {"location_name": "Chihine, Liban-Sud, Lebanon", "days": 2}}, {"type": "Feature", "geometry": {"type": "Point", "coordinates": [35.4247, 33.3247]}, "properties": {"location_name": "Qaqaiyat Al-Jisr, Nabatî, Lebanon", "days": 2}}, {"type": "Feature", "geometry": {"type": "Point", "coordinates": [34.3401, 31.3191]}, "properties": {"location_name": "Abasan, Gaza Strip (General), Gaza Strip", "days": 2}}, {"type": "Feature", "geometry": {"type": "Point", "coordinates": [34.825, 32.0106]}, "properties": {"location_name": "Mishmar Hashiva, Tel Aviv, Israel", "days": 2}}, {"type": "Feature", "geometry": {"type": "Point", "coordinates": [34.8386, 31.8539]}, "properties": {"location_name": "Ekron, Hamerkaz, Israel", "days": 2}}, {"type": "Feature", "geometry": {"type": "Point", "coordinates": [35.3424, 32.7466]}, "properties": {"location_name": "Kafr Kanna, Ha?Afon, Israel", "days": 2}}, {"type": "Feature", "geometry": {"type": "Point", "coordinates": [35.6581, 34.2553]}, "properties": {"location_name": "Batroun, Liban-Nord, Lebanon", "days": 2}}, {"type": "Feature", "geometry": {"type": "Point", "coordinates": [35.2895, 32.6095]}, "properties": {"location_name": "Afula, Ha?Afon, Israel", "days": 2}}, {"type": "Feature", "geometry": {"type": "Point", "coordinates": [61.3378, 30.7511]}, "properties": {"location_name": "Barmal, Sistan Va Baluchestan, Iran", "days": 2}}, {"type": "Feature", "geometry": {"type": "Point", "coordinates": [31.235, 30.0364]}, "properties": {"location_name": "Ministry Of Education, Al Qahirah, Egypt", "days": 2}}, {"type": "Feature", "geometry": {"type": "Point", "coordinates": [31.2367, 30.0428]}, "properties": {"location_name": "American University, Al Qahirah, Egypt", "days": 2}}, {"type": "Feature", "geometry": {"type": "Point", "coordinates": [35.5194, 33.8861]}, "properties": {"location_name": "Achrafieh, Beyrouth, Lebanon", "days": 2}}, {"type": "Feature", "geometry": {"type": "Point", "coordinates": [55.2604, 37.1189]}, "properties": {"location_name": "Nili, Golestan, Iran", "days": 2}}, {"type": "Feature", "geometry": {"type": "Point", "coordinates": [34.8033, 31.9264]}, "properties": {"location_name": "Ness Ziona, Hamerkaz, Israel", "days": 2}}, {"type": "Feature", "geometry": {"type": "Point", "coordinates": [35.45, 31.0667]}, "properties": {"location_name": "Wadi Araba, Israel (General), Israel", "days": 2}}, {"type": "Feature", "geometry": {"type": "Point", "coordinates": [35.4619, 33.3558]}, "properties": {"location_name": "Choukine, Nabatî, Lebanon", "days": 2}}, {"type": "Feature", "geometry": {"type": "Point", "coordinates": [35.083, 31.5564]}, "properties": {"location_name": "Al-Ahli Hospital, West Bank (General), West Bank", "days": 2}}, {"type": "Feature", "geometry": {"type": "Point", "coordinates": [35.0941, 33.0059]}, "properties": {"location_name": "Nahariyya, Ha?Afon, Israel", "days": 2}}, {"type": "Feature", "geometry": {"type": "Point", "coordinates": [50.6503, 26.2733]}, "properties": {"location_name": "Qalali, Al Mu?Arraq, Bahrain", "days": 2}}, {"type": "Feature", "geometry": {"type": "Point", "coordinates": [35.3455, 32.125]}, "properties": {"location_name": "Aqraba, West Bank (General), West Bank", "days": 2}}, {"type": "Feature", "geometry": {"type": "Point", "coordinates": [35.0984, 32.9834]}, "properties": {"location_name": "Al Mazraa, Ha?Afon, Israel", "days": 2}}, {"type": "Feature", "geometry": {"type": "Point", "coordinates": [34.8481, 32.0539]}, "properties": {"location_name": "Tel Hashomer, Hamerkaz, Israel", "days": 2}}, {"type": "Feature", "geometry": {"type": "Point", "coordinates": [35.4692, 33.8933]}, "properties": {"location_name": "Ras Beirut, Beyrouth, Lebanon", "days": 2}}, {"type": "Feature", "geometry": {"type": "Point", "coordinates": [53.4282, 36.0455]}, "properties": {"location_name": "Tamam, Semnan, Iran", "days": 2}}, {"type": "Feature", "geometry": {"type": "Point", "coordinates": [35.4803, 33.2772]}, "properties": {"location_name": "Adshit Al-Qusayr, Nabatî, Lebanon", "days": 2}}, {"type": "Feature", "geometry": {"type": "Point", "coordinates": [35.2908, 33.1144]}, "properties": {"location_name": "Jabal Blat, Liban-Sud, Lebanon", "days": 2}}, {"type": "Feature", "geometry": {"type": "Point", "coordinates": [35.4833, 31.85]}, "properties": {"location_name": "Jaljulia, West Bank (General), West Bank", "days": 2}}, {"type": "Feature", "geometry": {"type": "Point", "coordinates": [34.9903, 32.6458]}, "properties": {"location_name": "Ijzim, H_efa, Israel", "days": 2}}, {"type": "Feature", "geometry": {"type": "Point", "coordinates": [34.9942, 31.9669]}, "properties": {"location_name": "Budrus, West Bank (General), West Bank", "days": 2}}, {"type": "Feature", "geometry": {"type": "Point", "coordinates": [34.7667, 32.05]}, "properties": {"location_name": "Abu Kabir, Tel Aviv, Israel", "days": 2}}, {"type": "Feature", "geometry": {"type": "Point", "coordinates": [35.006, 32.5191]}, "properties": {"location_name": "Givat Ada, H_efa, Israel", "days": 2}}, {"type": "Feature", "geometry": {"type": "Point", "coordinates": [35.1483, 33.0209]}, "properties": {"location_name": "Kabri, Ha?Afon, Israel", "days": 2}}, {"type": "Feature", "geometry": {"type": "Point", "coordinates": [35.1493, 31.9448]}, "properties": {"location_name": "Sheikh Isa, West Bank (General), West Bank", "days": 2}}, {"type": "Feature", "geometry": {"type": "Point", "coordinates": [35.4333, 33.1194]}, "properties": {"location_name": "Bent Jbeil, Nabatî, Lebanon", "days": 2}}, {"type": "Feature", "geometry": {"type": "Point", "coordinates": [35.2381, 31.7684]}, "properties": {"location_name": "Silwan, West Bank (General), West Bank", "days": 2}}, {"type": "Feature", "geometry": {"type": "Point", "coordinates": [35.0099, 31.7807]}, "properties": {"location_name": "Eshtaol, Yerushalayim, Israel", "days": 2}}, {"type": "Feature", "geometry": {"type": "Point", "coordinates": [35.0193, 32.482]}, "properties": {"location_name": "Telesur, H_efa, Israel", "days": 2}}, {"type": "Feature", "geometry": {"type": "Point", "coordinates": [34.8953, 32.1692]}, "properties": {"location_name": "Kfar Malal, Hamerkaz, Israel", "days": 2}}, {"type": "Feature", "geometry": {"type": "Point", "coordinates": [35.0431, 32.4181]}, "properties": {"location_name": "Baqa, H_efa, Israel", "days": 2}}, {"type": "Feature", "geometry": {"type": "Point", "coordinates": [34.8106, 32.0192]}, "properties": {"location_name": "Azur, Tel Aviv, Israel", "days": 2}}, {"type": "Feature", "geometry": {"type": "Point", "coordinates": [34.9118, 32.3182]}, "properties": {"location_name": "Beit Lid, Hamerkaz, Israel", "days": 2}}, {"type": "Feature", "geometry": {"type": "Point", "coordinates": [34.652, 31.3276]}, "properties": {"location_name": "Gilat, Hadarom, Israel", "days": 2}}, {"type": "Feature", "geometry": {"type": "Point", "coordinates": [35.2972, 33.45]}, "properties": {"location_name": "Sarafand, Liban-Sud, Lebanon", "days": 2}}, {"type": "Feature", "geometry": {"type": "Point", "coordinates": [35.3014, 32.0168]}, "properties": {"location_name": "Khirbet Abu Falah, West Bank (General), West Bank", "days": 2}}, {"type": "Feature", "geometry": {"type": "Point", "coordinates": [34.7911, 31.1324]}, "properties": {"location_name": "Ramat Hovav, Hadarom, Israel", "days": 2}}, {"type": "Feature", "geometry": {"type": "Point", "coordinates": [35.3614, 33.1983]}, "properties": {"location_name": "Wadi Alma, Nabatî, Lebanon", "days": 2}}, {"type": "Feature", "geometry": {"type": "Point", "coordinates": [35.3772, 33.2828]}, "properties": {"location_name": "Arzoun, Liban-Sud, Lebanon", "days": 2}}, {"type": "Feature", "geometry": {"type": "Point", "coordinates": [34.9167, 31.6667]}, "properties": {"location_name": "Shephelah, Hadarom, Israel", "days": 2}}, {"type": "Feature", "geometry": {"type": "Point", "coordinates": [35.3711, 33.2808]}, "properties": {"location_name": "Derdghaya, Liban-Sud, Lebanon", "days": 2}}, {"type": "Feature", "geometry": {"type": "Point", "coordinates": [35.7278, 33.9892]}, "properties": {"location_name": "Faitroun, Mont-Liban, Lebanon", "days": 2}}, {"type": "Feature", "geometry": {"type": "Point", "coordinates": [35.7342, 34.2908]}, "properties": {"location_name": "Bednayel, Liban-Nord, Lebanon", "days": 2}}, {"type": "Feature", "geometry": {"type": "Point", "coordinates": [35.7875, 33.9442]}, "properties": {"location_name": "Baskinta, Mont-Liban, Lebanon", "days": 2}}, {"type": "Feature", "geometry": {"type": "Point", "coordinates": [35.8936, 34.3997]}, "properties": {"location_name": "Zgharta, Liban-Nord, Lebanon", "days": 2}}, {"type": "Feature", "geometry": {"type": "Point", "coordinates": [35.211, 33.0797]}, "properties": {"location_name": "Adamit, Ha?Afon, Israel", "days": 2}}, {"type": "Feature", "geometry": {"type": "Point", "coordinates": [35.2128, 31.925]}, "properties": {"location_name": "Al-Quds University, West Bank (General), West Bank", "days": 2}}, {"type": "Feature", "geometry": {"type": "Point", "coordinates": [35.2163, 31.9062]}, "properties": {"location_name": "Holy Family Church, West Bank (General), West Bank", "days": 2}}, {"type": "Feature", "geometry": {"type": "Point", "coordinates": [35.1807, 32.5786]}, "properties": {"location_name": "Megiddo, Ha?Afon, Israel", "days": 2}}, {"type": "Feature", "geometry": {"type": "Point", "coordinates": [35.1838, 31.6936]}, "properties": {"location_name": "Dheisheh, West Bank (General), West Bank", "days": 2}}, {"type": "Feature", "geometry": {"type": "Point", "coordinates": [36.1579, 33.8104]}, "properties": {"location_name": "Serghaya, Rif Dimashq, Syria", "days": 2}}, {"type": "Feature", "geometry": {"type": "Point", "coordinates": [36.1781, 34.5817]}, "properties": {"location_name": "Dweir, AakkâLe, Lebanon", "days": 2}}, {"type": "Feature", "geometry": {"type": "Point", "coordinates": [36.1005, 33.7249]}, "properties": {"location_name": "Zabadani, Rif Dimashq, Syria", "days": 2}}, {"type": "Feature", "geometry": {"type": "Point", "coordinates": [36.1233, 33.8586]}, "properties": {"location_name": "Yahfoufa, Mohafazat Baalbek-Hermel, Lebanon", "days": 2}}, {"type": "Feature", "geometry": {"type": "Point", "coordinates": [34.6924, 31.8203]}, "properties": {"location_name": "Netivot, Hamerkaz, Israel", "days": 2}}, {"type": "Feature", "geometry": {"type": "Point", "coordinates": [34.7072, 31.9331]}, "properties": {"location_name": "Palmahim, Hamerkaz, Israel", "days": 2}}, {"type": "Feature", "geometry": {"type": "Point", "coordinates": [34.7642, 31.61]}, "properties": {"location_name": "Kiryat Gat, Hadarom, Israel", "days": 2}}, {"type": "Feature", "geometry": {"type": "Point", "coordinates": [34.5396, 31.572]}, "properties": {"location_name": "Netiv Haasara, Hadarom, Israel", "days": 2}}, {"type": "Feature", "geometry": {"type": "Point", "coordinates": [43.8739, 34.1966]}, "properties": {"location_name": "Samarra, Sala? Ad Din, Iraq", "days": 2}}, {"type": "Feature", "geometry": {"type": "Point", "coordinates": [36.2428, 33.3572]}, "properties": {"location_name": "Kisweh, Rif Dimashq, Syria", "days": 2}}, {"type": "Feature", "geometry": {"type": "Point", "coordinates": [36.2814, 34.0147]}, "properties": {"location_name": "Qawzah, Mohafazat Baalbek-Hermel, Lebanon", "days": 2}}, {"type": "Feature", "geometry": {"type": "Point", "coordinates": [36.4426, 33.5743]}, "properties": {"location_name": "Rayhan, Rif Dimashq, Syria", "days": 2}}, {"type": "Feature", "geometry": {"type": "Point", "coordinates": [36.4826, 32.5201]}, "properties": {"location_name": "Bosra, DarA, Syria", "days": 2}}, {"type": "Feature", "geometry": {"type": "Point", "coordinates": [34.5782, 31.4498]}, "properties": {"location_name": "Tekuma, Hadarom, Israel", "days": 2}}, {"type": "Feature", "geometry": {"type": "Point", "coordinates": [34.6463, 31.4699]}, "properties": {"location_name": "Shoval, Hadarom, Israel", "days": 2}}, {"type": "Feature", "geometry": {"type": "Point", "coordinates": [38.2805, 34.5608]}, "properties": {"location_name": "Palmyra, ?Ims, Syria", "days": 2}}, {"type": "Feature", "geometry": {"type": "Point", "coordinates": [34.378, 31.4105]}, "properties": {"location_name": "Al-Musaddar, Gaza Strip (General), Gaza Strip", "days": 2}}, {"type": "Feature", "geometry": {"type": "Point", "coordinates": [44.5169, 32.6047]}, "properties": {"location_name": "Burhan, Babil, Iraq", "days": 2}}, {"type": "Feature", "geometry": {"type": "Point", "coordinates": [36.7111, 32.492]}, "properties": {"location_name": "Salkhad, As Suwayda', Syria", "days": 2}}, {"type": "Feature", "geometry": {"type": "Point", "coordinates": [48.8472, 15.9933]}, "properties": {"location_name": "Wadi Hadramaut, ?A?Ramawt, Yemen", "days": 2}}, {"type": "Feature", "geometry": {"type": "Point", "coordinates": [45.4341, 38.7382]}, "properties": {"location_name": "Seyyed Ali, Az¯Arbayjan-E Sharqi, Iran", "days": 2}}, {"type": "Feature", "geometry": {"type": "Point", "coordinates": [45.4368, 39.1923]}, "properties": {"location_name": "Shekerabad, NaxçAn**, Azerbaijan", "days": 2}}, {"type": "Feature", "geometry": {"type": "Point", "coordinates": [45.4428, 39.1546]}, "properties": {"location_name": "Babek, NaxçAn**, Azerbaijan", "days": 2}}, {"type": "Feature", "geometry": {"type": "Point", "coordinates": [46.129, 38.1753]}, "properties": {"location_name": "Sabalan, Az¯Arbayjan-E Sharqi, Iran", "days": 2}}, {"type": "Feature", "geometry": {"type": "Point", "coordinates": [34.4133, 31.2483]}, "properties": {"location_name": "Amioz, Hadarom, Israel", "days": 2}}, {"type": "Feature", "geometry": {"type": "Point", "coordinates": [34.4387, 31.5145]}, "properties": {"location_name": "Al-Azhar University, Gaza Strip (General), Gaza Strip", "days": 2}}, {"type": "Feature", "geometry": {"type": "Point", "coordinates": [34.2923, 31.3352]}, "properties": {"location_name": "Qizan, Gaza Strip (General), Gaza Strip", "days": 2}}, {"type": "Feature", "geometry": {"type": "Point", "coordinates": [34.4546, 31.5153]}, "properties": {"location_name": "Ministry Of Education, Gaza Strip (General), Gaza Strip", "days": 2}}, {"type": "Feature", "geometry": {"type": "Point", "coordinates": [34.4613, 31.536]}, "properties": {"location_name": "Palestine Bank, Gaza Strip (General), Gaza Strip", "days": 2}}, {"type": "Feature", "geometry": {"type": "Point", "coordinates": [34.4637, 31.5021]}, "properties": {"location_name": "Roman Catholic Church, Gaza Strip (General), Gaza Strip", "days": 2}}, {"type": "Feature", "geometry": {"type": "Point", "coordinates": [34.4833, 31.5333]}, "properties": {"location_name": "Nazla, Gaza Strip (General), Gaza Strip", "days": 2}}, {"type": "Feature", "geometry": {"type": "Point", "coordinates": [34.4901, 31.3081]}, "properties": {"location_name": "Ein Habesor, Hadarom, Israel", "days": 2}}, {"type": "Feature", "geometry": {"type": "Point", "coordinates": [47.4167, 31.0]}, "properties": {"location_name": "Tigris River, Al Basrah, Iraq", "days": 2}}, {"type": "Feature", "geometry": {"type": "Point", "coordinates": [51.4133, 35.8147]}, "properties": {"location_name": "Velenjak, Tehran, Iran", "days": 2}}, {"type": "Feature", "geometry": {"type": "Point", "coordinates": [34.4076, 31.2417]}, "properties": {"location_name": "Mivtahim, Hadarom, Israel", "days": 2}}, {"type": "Feature", "geometry": {"type": "Point", "coordinates": [35.1924, 31.797]}, "properties": {"location_name": "Lifta, Yerushalayim, Israel", "days": 2}}, {"type": "Feature", "geometry": {"type": "Point", "coordinates": [35.1043, 32.5308]}, "properties": {"location_name": "Muawiya, Ha?Afon, Israel", "days": 2}}, {"type": "Feature", "geometry": {"type": "Point", "coordinates": [35.1093, 31.8059]}, "properties": {"location_name": "Abu Ghosh, Yerushalayim, Israel", "days": 2}}, {"type": "Feature", "geometry": {"type": "Point", "coordinates": [35.0574, 31.7455]}, "properties": {"location_name": "Nesharim, Yerushalayim, Israel", "days": 1}}, {"type": "Feature", "geometry": {"type": "Point", "coordinates": [35.0653, 31.7971]}, "properties": {"location_name": "Shoresh, Yerushalayim, Israel", "days": 1}}, {"type": "Feature", "geometry": {"type": "Point", "coordinates": [35.0667, 31.25]}, "properties": {"location_name": "Kuseife, Hadarom, Israel", "days": 1}}, {"type": "Feature", "geometry": {"type": "Point", "coordinates": [35.0776, 32.8371]}, "properties": {"location_name": "Kiryat Motzkin, H_efa, Israel", "days": 1}}, {"type": "Feature", "geometry": {"type": "Point", "coordinates": [35.0956, 31.9259]}, "properties": {"location_name": "Kafr Nima, West Bank (General), West Bank", "days": 1}}, {"type": "Feature", "geometry": {"type": "Point", "coordinates": [34.9701, 32.2614]}, "properties": {"location_name": "Azriel, Hamerkaz, Israel", "days": 1}}, {"type": "Feature", "geometry": {"type": "Point", "coordinates": [34.9718, 32.7602]}, "properties": {"location_name": "Tirat Carmel, H_efa, Israel", "days": 1}}, {"type": "Feature", "geometry": {"type": "Point", "coordinates": [34.9739, 32.1142]}, "properties": {"location_name": "Kafr Qasim, Hamerkaz, Israel", "days": 1}}, {"type": "Feature", "geometry": {"type": "Point", "coordinates": [35.119, 31.5284]}, "properties": {"location_name": "Kiryat Arba, West Bank (General), West Bank", "days": 1}}, {"type": "Feature", "geometry": {"type": "Point", "coordinates": [35.1246, 32.7189]}, "properties": {"location_name": "Kiryat Tivon, H_efa, Israel", "days": 1}}, {"type": "Feature", "geometry": {"type": "Point", "coordinates": [35.1347, 31.7093]}, "properties": {"location_name": "Husan, West Bank (General), West Bank", "days": 1}}, {"type": "Feature", "geometry": {"type": "Point", "coordinates": [35.1353, 33.0928]}, "properties": {"location_name": "Jall Al-Alam, Liban-Sud, Lebanon", "days": 1}}, {"type": "Feature", "geometry": {"type": "Point", "coordinates": [35.1359, 33.0685]}, "properties": {"location_name": "Al Bassa, Ha?Afon, Israel", "days": 1}}, {"type": "Feature", "geometry": {"type": "Point", "coordinates": [35.1631, 31.7678]}, "properties": {"location_name": "Ein Kerem, Hadarom, Israel", "days": 1}}, {"type": "Feature", "geometry": {"type": "Point", "coordinates": [35.1639, 33.1558]}, "properties": {"location_name": "Iskandarouna, Liban-Sud, Lebanon", "days": 1}}, {"type": "Feature", "geometry": {"type": "Point", "coordinates": [35.0333, 31.8167]}, "properties": {"location_name": "Shaar Hagai, Yerushalayim, Israel", "days": 1}}, {"type": "Feature", "geometry": {"type": "Point", "coordinates": [35.0393, 32.035]}, "properties": {"location_name": "Lubban, West Bank (General), West Bank", "days": 1}}, {"type": "Feature", "geometry": {"type": "Point", "coordinates": [35.05, 32.7665]}, "properties": {"location_name": "Nesher, H_efa, Israel", "days": 1}}, {"type": "Feature", "geometry": {"type": "Point", "coordinates": [35.2082, 31.8629]}, "properties": {"location_name": "Qalandiya, West Bank (General), West Bank", "days": 1}}, {"type": "Feature", "geometry": {"type": "Point", "coordinates": [35.2086, 33.1456]}, "properties": {"location_name": "Chamaa, Liban-Sud, Lebanon", "days": 1}}, {"type": "Feature", "geometry": {"type": "Point", "coordinates": [35.3578, 33.4164]}, "properties": {"location_name": "Ghassaniyah, Liban-Sud, Lebanon", "days": 1}}, {"type": "Feature", "geometry": {"type": "Point", "coordinates": [35.3622, 33.1433]}, "properties": {"location_name": "Rshaf, Nabatî, Lebanon", "days": 1}}, {"type": "Feature", "geometry": {"type": "Point", "coordinates": [35.3661, 33.1211]}, "properties": {"location_name": "Dibil, Nabatî, Lebanon", "days": 1}}, {"type": "Feature", "geometry": {"type": "Point", "coordinates": [35.3711, 33.4381]}, "properties": {"location_name": "Tuffahta, Liban-Sud, Lebanon", "days": 1}}, {"type": "Feature", "geometry": {"type": "Point", "coordinates": [35.3724, 32.7769]}, "properties": {"location_name": "Tiran, Ha?Afon, Israel", "days": 1}}, {"type": "Feature", "geometry": {"type": "Point", "coordinates": [35.3103, 33.1108]}, "properties": {"location_name": "Ramyah, Nabatî, Lebanon", "days": 1}}, {"type": "Feature", "geometry": {"type": "Point", "coordinates": [35.3136, 33.3]}, "properties": {"location_name": "Deir Qanoun En Nahr, Liban-Sud, Lebanon", "days": 1}}, {"type": "Feature", "geometry": {"type": "Point", "coordinates": [35.3194, 33.2864]}, "properties": {"location_name": "Jennata, Liban-Sud, Lebanon", "days": 1}}, {"type": "Feature", "geometry": {"type": "Point", "coordinates": [35.3219, 33.1314]}, "properties": {"location_name": "Khanouq, Nabatî, Lebanon", "days": 1}}, {"type": "Feature", "geometry": {"type": "Point", "coordinates": [35.3234, 33.0646]}, "properties": {"location_name": "Netua, Ha?Afon, Israel", "days": 1}}, {"type": "Feature", "geometry": {"type": "Point", "coordinates": [35.33, 32.0854]}, "properties": {"location_name": "Qusra, West Bank (General), West Bank", "days": 1}}, {"type": "Feature", "geometry": {"type": "Point", "coordinates": [35.3356, 33.2372]}, "properties": {"location_name": "Jwayya, Liban-Sud, Lebanon", "days": 1}}, {"type": "Feature", "geometry": {"type": "Point", "coordinates": [35.3415, 33.0583]}, "properties": {"location_name": "Biranit, Ha?Afon, Israel", "days": 1}}, {"type": "Feature", "geometry": {"type": "Point", "coordinates": [35.3461, 33.505]}, "properties": {"location_name": "Basfour, Liban-Sud, Lebanon", "days": 1}}, {"type": "Feature", "geometry": {"type": "Point", "coordinates": [35.3486, 33.3089]}, "properties": {"location_name": "Tayr Falsayh, Liban-Sud, Lebanon", "days": 1}}, {"type": "Feature", "geometry": {"type": "Point", "coordinates": [34.9778, 32.4741]}, "properties": {"location_name": "Pardes Hanna-Karkur, H_efa, Israel", "days": 1}}, {"type": "Feature", "geometry": {"type": "Point", "coordinates": [34.9833, 32.1333]}, "properties": {"location_name": "Oranit, West Bank (General), West Bank", "days": 1}}, {"type": "Feature", "geometry": {"type": "Point", "coordinates": [34.9957, 32.4671]}, "properties": {"location_name": "Gan Hashomron, H_efa, Israel", "days": 1}}, {"type": "Feature", "geometry": {"type": "Point", "coordinates": [35.0069, 32.4632]}, "properties": {"location_name": "Ein Shemer, H_efa, Israel", "days": 1}}, {"type": "Feature", "geometry": {"type": "Point", "coordinates": [34.9064, 32.1397]}, "properties": {"location_name": "Adanim, Hamerkaz, Israel", "days": 1}}, {"type": "Feature", "geometry": {"type": "Point", "coordinates": [35.3514, 33.2953]}, "properties": {"location_name": "Hmairi, Liban-Sud, Lebanon", "days": 1}}, {"type": "Feature", "geometry": {"type": "Point", "coordinates": [35.3833, 31.45]}, "properties": {"location_name": "Ein Gedi, Hadarom, Israel", "days": 1}}, {"type": "Feature", "geometry": {"type": "Point", "coordinates": [34.9167, 30.5]}, "properties": {"location_name": "Negev, Hadarom, Israel", "days": 1}}, {"type": "Feature", "geometry": {"type": "Point", "coordinates": [34.9233, 32.6075]}, "properties": {"location_name": "Tantura, H_efa, Israel", "days": 1}}, {"type": "Feature", "geometry": {"type": "Point", "coordinates": [34.9447, 32.0186]}, "properties": {"location_name": "Bareket, Hamerkaz, Israel", "days": 1}}, {"type": "Feature", "geometry": {"type": "Point", "coordinates": [34.8228, 32.2031]}, "properties": {"location_name": "Rishpon, Hamerkaz, Israel", "days": 1}}, {"type": "Feature", "geometry": {"type": "Point", "coordinates": [35.4003, 33.3617]}, "properties": {"location_name": "Aabba, Nabatî, Lebanon", "days": 1}}, {"type": "Feature", "geometry": {"type": "Point", "coordinates": [35.4142, 33.4647]}, "properties": {"location_name": "Erkay, Liban-Sud, Lebanon", "days": 1}}, {"type": "Feature", "geometry": {"type": "Point", "coordinates": [35.4189, 33.2606]}, "properties": {"location_name": "Burj Qallawiyah, Nabatî, Lebanon", "days": 1}}, {"type": "Feature", "geometry": {"type": "Point", "coordinates": [35.4289, 33.2967]}, "properties": {"location_name": "Froun, Nabatî, Lebanon", "days": 1}}, {"type": "Feature", "geometry": {"type": "Point", "coordinates": [34.8417, 32.1472]}, "properties": {"location_name": "Ramat Hasharon, Tel Aviv, Israel", "days": 1}}, {"type": "Feature", "geometry": {"type": "Point", "coordinates": [34.8649, 31.3712]}, "properties": {"location_name": "Rimon, Hadarom, Israel", "days": 1}}, {"type": "Feature", "geometry": {"type": "Point", "coordinates": [34.8667, 31.8667]}, "properties": {"location_name": "Naama, Hamerkaz, Israel", "days": 1}}, {"type": "Feature", "geometry": {"type": "Point", "coordinates": [34.7667, 31.8833]}, "properties": {"location_name": "Qubayba, Hamerkaz, Israel", "days": 1}}, {"type": "Feature", "geometry": {"type": "Point", "coordinates": [35.4355, 31.8921]}, "properties": {"location_name": "Nueima, West Bank (General), West Bank", "days": 1}}, {"type": "Feature", "geometry": {"type": "Point", "coordinates": [35.4375, 33.1411]}, "properties": {"location_name": "Hafour, Nabatî, Lebanon", "days": 1}}, {"type": "Feature", "geometry": {"type": "Point", "coordinates": [35.4412, 32.7213]}, "properties": {"location_name": "Kafr Kamma, Ha?Afon, Israel", "days": 1}}, {"type": "Feature", "geometry": {"type": "Point", "coordinates": [35.3811, 33.1097]}, "properties": {"location_name": "Haneen, Nabatî, Lebanon", "days": 1}}, {"type": "Feature", "geometry": {"type": "Point", "coordinates": [35.3831, 33.3422]}, "properties": {"location_name": "Braiqaa, Nabatî, Lebanon", "days": 1}}, {"type": "Feature", "geometry": {"type": "Point", "coordinates": [35.6481, 34.1211]}, "properties": {"location_name": "Jebail, Mont-Liban, Lebanon", "days": 1}}, {"type": "Feature", "geometry": {"type": "Point", "coordinates": [35.6675, 33.975]}, "properties": {"location_name": "Masnaa, Mont-Liban, Lebanon", "days": 1}}, {"type": "Feature", "geometry": {"type": "Point", "coordinates": [35.7206, 34.2444]}, "properties": {"location_name": "Salaa, Liban-Nord, Lebanon", "days": 1}}, {"type": "Feature", "geometry": {"type": "Point", "coordinates": [35.4833, 33.9]}, "properties": {"location_name": "Al-Hamra, Beyrouth, Lebanon", "days": 1}}, {"type": "Feature", "geometry": {"type": "Point", "coordinates": [35.4892, 33.8842]}, "properties": {"location_name": "Tallet El Khayat, Beyrouth, Lebanon", "days": 1}}, {"type": "Feature", "geometry": {"type": "Point", "coordinates": [35.4972, 33.9006]}, "properties": {"location_name": "Minet El Hosn, Beyrouth, Lebanon", "days": 1}}, {"type": "Feature", "geometry": {"type": "Point", "coordinates": [35.5953, 33.945]}, "properties": {"location_name": "Dbayeh, Mont-Liban, Lebanon", "days": 1}}, {"type": "Feature", "geometry": {"type": "Point", "coordinates": [34.7798, 31.6709]}, "properties": {"location_name": "Segula, Hadarom, Israel", "days": 1}}, {"type": "Feature", "geometry": {"type": "Point", "coordinates": [34.7833, 32.0667]}, "properties": {"location_name": "Hakirya, Tel Aviv, Israel", "days": 1}}, {"type": "Feature", "geometry": {"type": "Point", "coordinates": [34.6667, 31.75]}, "properties": {"location_name": "Isdud, Hadarom, Israel", "days": 1}}, {"type": "Feature", "geometry": {"type": "Point", "coordinates": [35.5978, 33.9336]}, "properties": {"location_name": "Awkar, Mont-Liban, Lebanon", "days": 1}}, {"type": "Feature", "geometry": {"type": "Point", "coordinates": [35.6242, 32.2214]}, "properties": {"location_name": "Khazma, Jordan (General), Jordan", "days": 1}}, {"type": "Feature", "geometry": {"type": "Point", "coordinates": [35.6342, 33.9061]}, "properties": {"location_name": "Ramiyah, Mont-Liban, Lebanon", "days": 1}}, {"type": "Feature", "geometry": {"type": "Point", "coordinates": [35.6408, 33.7875]}, "properties": {"location_name": "Chaqif, Mont-Liban, Lebanon", "days": 1}}, {"type": "Feature", "geometry": {"type": "Point", "coordinates": [35.6414, 34.1658]}, "properties": {"location_name": "Ar Rihan, Mont-Liban, Lebanon", "days": 1}}, {"type": "Feature", "geometry": {"type": "Point", "coordinates": [36.0521, 31.2508]}, "properties": {"location_name": "Al-Qatrani, Al Karak, Jordan", "days": 1}}, {"type": "Feature", "geometry": {"type": "Point", "coordinates": [36.0797, 34.5428]}, "properties": {"location_name": "Akkar, AakkâLe, Lebanon", "days": 1}}, {"type": "Feature", "geometry": {"type": "Point", "coordinates": [51.5476, 32.864]}, "properties": {"location_name": "Shahinshahr, Esfahan, Iran", "days": 1}}, {"type": "Feature", "geometry": {"type": "Point", "coordinates": [51.124, 35.7385]}, "properties": {"location_name": "Vardavard, Tehran, Iran", "days": 1}}, {"type": "Feature", "geometry": {"type": "Point", "coordinates": [35.75, 34.1131]}, "properties": {"location_name": "Annaya, Mont-Liban, Lebanon", "days": 1}}, {"type": "Feature", "geometry": {"type": "Point", "coordinates": [35.7664, 33.8094]}, "properties": {"location_name": "Dahr Al-Baydar, Mont-Liban, Lebanon", "days": 1}}, {"type": "Feature", "geometry": {"type": "Point", "coordinates": [35.7706, 31.4063]}, "properties": {"location_name": "Mughayyir, Al Karak, Jordan", "days": 1}}, {"type": "Feature", "geometry": {"type": "Point", "coordinates": [35.7856, 34.2189]}, "properties": {"location_name": "Assia, Liban-Nord, Lebanon", "days": 1}}, {"type": "Feature", "geometry": {"type": "Point", "coordinates": [51.2552, 35.6974]}, "properties": {"location_name": "Tehran-Sar, Tehran, Iran", "days": 1}}, {"type": "Feature", "geometry": {"type": "Point", "coordinates": [35.7939, 31.716]}, "properties": {"location_name": "Madaba, Jordan (General), Jordan", "days": 1}}, {"type": "Feature", "geometry": {"type": "Point", "coordinates": [35.7963, 31.8759]}, "properties": {"location_name": "Balqa, Jordan (General), Jordan", "days": 1}}, {"type": "Feature", "geometry": {"type": "Point", "coordinates": [35.8678, 34.4469]}, "properties": {"location_name": "Beddawi, Liban-Nord, Lebanon", "days": 1}}, {"type": "Feature", "geometry": {"type": "Point", "coordinates": [35.8742, 33.5764]}, "properties": {"location_name": "Ain Arab, BéA, Lebanon", "days": 1}}, {"type": "Feature", "geometry": {"type": "Point", "coordinates": [35.8808, 33.8203]}, "properties": {"location_name": "Saadnayel, BéA, Lebanon", "days": 1}}, {"type": "Feature", "geometry": {"type": "Point", "coordinates": [35.8864, 33.6486]}, "properties": {"location_name": "Hammara, BéA, Lebanon", "days": 1}}, {"type": "Feature", "geometry": {"type": "Point", "coordinates": [51.2833, 25.9667]}, "properties": {"location_name": "Al Kaaban, Madinat Ash Shamal, Qatar", "days": 1}}, {"type": "Feature", "geometry": {"type": "Point", "coordinates": [34.3439, 31.4093]}, "properties": {"location_name": "Al-Hakar, Gaza Strip (General), Gaza Strip", "days": 1}}, {"type": "Feature", "geometry": {"type": "Point", "coordinates": [31.3008, 29.8414]}, "properties": {"location_name": "Helwan, Egypt (General), Egypt", "days": 1}}, {"type": "Feature", "geometry": {"type": "Point", "coordinates": [35.2142, 33.2422]}, "properties": {"location_name": "Rashidieh, Liban-Sud, Lebanon", "days": 1}}, {"type": "Feature", "geometry": {"type": "Point", "coordinates": [31.311, 30.0577]}, "properties": {"location_name": "Ministry Of Petroleum, Al Qahirah, Egypt", "days": 1}}, {"type": "Feature", "geometry": {"type": "Point", "coordinates": [35.2169, 31.7044]}, "properties": {"location_name": "Roman Catholic Church, West Bank (General), West Bank", "days": 1}}, {"type": "Feature", "geometry": {"type": "Point", "coordinates": [35.1661, 33.1228]}, "properties": {"location_name": "Hamoul, Liban-Sud, Lebanon", "days": 1}}, {"type": "Feature", "geometry": {"type": "Point", "coordinates": [35.1667, 31.65]}, "properties": {"location_name": "Migdal Oz, West Bank (General), West Bank", "days": 1}}, {"type": "Feature", "geometry": {"type": "Point", "coordinates": [35.1682, 32.4457]}, "properties": {"location_name": "Yabad, West Bank (General), West Bank", "days": 1}}, {"type": "Feature", "geometry": {"type": "Point", "coordinates": [35.1705, 31.8966]}, "properties": {"location_name": "Beitunia, West Bank (General), West Bank", "days": 1}}, {"type": "Feature", "geometry": {"type": "Point", "coordinates": [32.4833, 25.4833]}, "properties": {"location_name": "Jabalayn, Qina, Egypt", "days": 1}}, {"type": "Feature", "geometry": {"type": "Point", "coordinates": [35.1832, 31.7523]}, "properties": {"location_name": "Al-Malha, Yerushalayim, Israel", "days": 1}}, {"type": "Feature", "geometry": {"type": "Point", "coordinates": [31.231, 30.024]}, "properties": {"location_name": "Cancer Institute, Al Qahirah, Egypt", "days": 1}}, {"type": "Feature", "geometry": {"type": "Point", "coordinates": [36.1362, 33.6038]}, "properties": {"location_name": "Deir Qanoun, Rif Dimashq, Syria", "days": 1}}, {"type": "Feature", "geometry": {"type": "Point", "coordinates": [55.1461, 30.3231]}, "properties": {"location_name": "Takestan, Kerman, Iran", "days": 1}}, {"type": "Feature", "geometry": {"type": "Point", "coordinates": [36.1661, 33.9583]}, "properties": {"location_name": "Et Taybeh, Mohafazat Baalbek-Hermel, Lebanon", "days": 1}}, {"type": "Feature", "geometry": {"type": "Point", "coordinates": [55.6667, 25.1]}, "properties": {"location_name": "Arafi, Ash Shariqah, United Arab Emirates", "days": 1}}, {"type": "Feature", "geometry": {"type": "Point", "coordinates": [36.1892, 33.8506]}, "properties": {"location_name": "Maaraboun, Mohafazat Baalbek-Hermel, Lebanon", "days": 1}}, {"type": "Feature", "geometry": {"type": "Point", "coordinates": [36.1933, 34.3094]}, "properties": {"location_name": "Wadi Hassan, Mohafazat Baalbek-Hermel, Lebanon", "days": 1}}, {"type": "Feature", "geometry": {"type": "Point", "coordinates": [36.208, 32.3429]}, "properties": {"location_name": "Mafraq, Jordan (General), Jordan", "days": 1}}, {"type": "Feature", "geometry": {"type": "Point", "coordinates": [36.2243, 32.6288]}, "properties": {"location_name": "Saida, DarA, Syria", "days": 1}}, {"type": "Feature", "geometry": {"type": "Point", "coordinates": [35.9025, 33.7083]}, "properties": {"location_name": "Majdal Anjar, BéA, Lebanon", "days": 1}}, {"type": "Feature", "geometry": {"type": "Point", "coordinates": [35.9042, 33.8497]}, "properties": {"location_name": "Zahle, BéA, Lebanon", "days": 1}}, {"type": "Feature", "geometry": {"type": "Point", "coordinates": [35.9203, 34.3078]}, "properties": {"location_name": "Aitou, Liban-Nord, Lebanon", "days": 1}}, {"type": "Feature", "geometry": {"type": "Point", "coordinates": [36.0167, 33.7667]}, "properties": {"location_name": "Tuffah, Lebanon (General), Lebanon", "days": 1}}, {"type": "Feature", "geometry": {"type": "Point", "coordinates": [36.0308, 34.3175]}, "properties": {"location_name": "Wadi Al-Asafir, Liban-Nord, Lebanon", "days": 1}}, {"type": "Feature", "geometry": {"type": "Point", "coordinates": [36.0992, 34.0017]}, "properties": {"location_name": "Al-Fawwar, Mohafazat Baalbek-Hermel, Lebanon", "days": 1}}, {"type": "Feature", "geometry": {"type": "Point", "coordinates": [55.7633, 24.2847]}, "properties": {"location_name": "Hili, Abu Z¸Aby, United Arab Emirates", "days": 1}}, {"type": "Feature", "geometry": {"type": "Point", "coordinates": [57.3, 22.9667]}, "properties": {"location_name": "Al-Hamra, Ad Dakhiliyah, Oman", "days": 1}}, {"type": "Feature", "geometry": {"type": "Point", "coordinates": [36.1311, 34.1253]}, "properties": {"location_name": "Deir El Ahmar, Mohafazat Baalbek-Hermel, Lebanon", "days": 1}}, {"type": "Feature", "geometry": {"type": "Point", "coordinates": [57.5222, 23.0206]}, "properties": {"location_name": "Al Abyad, Ad Dakhiliyah, Oman", "days": 1}}, {"type": "Feature", "geometry": {"type": "Point", "coordinates": [34.705, 31.9361]}, "properties": {"location_name": "Sorek, Israel (General), Israel", "days": 1}}, {"type": "Feature", "geometry": {"type": "Point", "coordinates": [31.2258, 30.0396]}, "properties": {"location_name": "Leadership Council, Al Jizah, Egypt", "days": 1}}, {"type": "Feature", "geometry": {"type": "Point", "coordinates": [34.7444, 31.7108]}, "properties": {"location_name": "Yael, Hadarom, Israel", "days": 1}}, {"type": "Feature", "geometry": {"type": "Point", "coordinates": [34.7465, 31.73]}, "properties": {"location_name": "Kiryat Malakhi, Hadarom, Israel", "days": 1}}, {"type": "Feature", "geometry": {"type": "Point", "coordinates": [34.7619, 31.4455]}, "properties": {"location_name": "Safiyah, Hadarom, Israel", "days": 1}}, {"type": "Feature", "geometry": {"type": "Point", "coordinates": [51.5381, 32.5926]}, "properties": {"location_name": "Fudan, Esfahan, Iran", "days": 1}}, {"type": "Feature", "geometry": {"type": "Point", "coordinates": [34.5367, 31.4329]}, "properties": {"location_name": "Kfar Maimon, Hadarom, Israel", "days": 1}}, {"type": "Feature", "geometry": {"type": "Point", "coordinates": [52.8741, 29.9885]}, "properties": {"location_name": "Naqsh-E Rostam, Fars, Iran", "days": 1}}, {"type": "Feature", "geometry": {"type": "Point", "coordinates": [36.1336, 33.9903]}, "properties": {"location_name": "Majdaloun, Mohafazat Baalbek-Hermel, Lebanon", "days": 1}}, {"type": "Feature", "geometry": {"type": "Point", "coordinates": [53.18, 30.2019]}, "properties": {"location_name": "Pasargad, Fars, Iran", "days": 1}}, {"type": "Feature", "geometry": {"type": "Point", "coordinates": [43.9483, 35.9732]}, "properties": {"location_name": "Dugirdkan, Liwa' Irbil, Iraq", "days": 1}}, {"type": "Feature", "geometry": {"type": "Point", "coordinates": [43.9924, 36.2301]}, "properties": {"location_name": "Ainkawa, Liwa' Irbil, Iraq", "days": 1}}, {"type": "Feature", "geometry": {"type": "Point", "coordinates": [36.2269, 34.5547]}, "properties": {"location_name": "Wadi Al-Akhdar, AakkâLe, Lebanon", "days": 1}}, {"type": "Feature", "geometry": {"type": "Point", "coordinates": [36.2392, 33.4313]}, "properties": {"location_name": "Ashrafiyat Sahnaya, Rif Dimashq, Syria", "days": 1}}, {"type": "Feature", "geometry": {"type": "Point", "coordinates": [53.1809, 30.2034]}, "properties": {"location_name": "Pasargadae, Fars, Iran", "days": 1}}, {"type": "Feature", "geometry": {"type": "Point", "coordinates": [36.2639, 34.2083]}, "properties": {"location_name": "Harbata, Mohafazat Baalbek-Hermel, Lebanon", "days": 1}}, {"type": "Feature", "geometry": {"type": "Point", "coordinates": [36.2747, 34.0792]}, "properties": {"location_name": "Younine, Mohafazat Baalbek-Hermel, Lebanon", "days": 1}}, {"type": "Feature", "geometry": {"type": "Point", "coordinates": [31.2131, 30.0652]}, "properties": {"location_name": "Ministry Of Culture, Al Jizah, Egypt", "days": 1}}, {"type": "Feature", "geometry": {"type": "Point", "coordinates": [36.301, 34.7604]}, "properties": {"location_name": "Crac Des Chevaliers, Tartus, Syria", "days": 1}}, {"type": "Feature", "geometry": {"type": "Point", "coordinates": [36.3056, 34.2856]}, "properties": {"location_name": "Wadi Fara, Mohafazat Baalbek-Hermel, Lebanon", "days": 1}}, {"type": "Feature", "geometry": {"type": "Point", "coordinates": [36.3496, 33.516]}, "properties": {"location_name": "Ain Terma, Dimashq, Syria", "days": 1}}, {"type": "Feature", "geometry": {"type": "Point", "coordinates": [36.3833, 33.5]}, "properties": {"location_name": "Ghouta, Dimashq, Syria", "days": 1}}, {"type": "Feature", "geometry": {"type": "Point", "coordinates": [31.1333, 29.9833]}, "properties": {"location_name": "Pyramids Of Giza, Al Jizah, Egypt", "days": 1}}, {"type": "Feature", "geometry": {"type": "Point", "coordinates": [35.2772, 33.2211]}, "properties": {"location_name": "Hanaouay, Liban-Sud, Lebanon", "days": 1}}, {"type": "Feature", "geometry": {"type": "Point", "coordinates": [34.544, 31.4509]}, "properties": {"location_name": "Shuva, Hadarom, Israel", "days": 1}}, {"type": "Feature", "geometry": {"type": "Point", "coordinates": [34.554, 31.4478]}, "properties": {"location_name": "Zimrat, Hadarom, Israel", "days": 1}}, {"type": "Feature", "geometry": {"type": "Point", "coordinates": [35.2205, 31.8796]}, "properties": {"location_name": "Kafr Aqab, West Bank (General), West Bank", "days": 1}}, {"type": "Feature", "geometry": {"type": "Point", "coordinates": [34.6064, 31.6359]}, "properties": {"location_name": "Julis, Hadarom, Israel", "days": 1}}, {"type": "Feature", "geometry": {"type": "Point", "coordinates": [34.6129, 31.6165]}, "properties": {"location_name": "Lahat, Hadarom, Israel", "days": 1}}, {"type": "Feature", "geometry": {"type": "Point", "coordinates": [34.6203, 31.3141]}, "properties": {"location_name": "Ofakim, Hadarom, Israel", "days": 1}}, {"type": "Feature", "geometry": {"type": "Point", "coordinates": [35.2233, 32.6775]}, "properties": {"location_name": "Yifat, Ha?Afon, Israel", "days": 1}}, {"type": "Feature", "geometry": {"type": "Point", "coordinates": [34.4416, 31.5149]}, "properties": {"location_name": "Benevolent Society, Gaza Strip (General), Gaza Strip", "days": 1}}, {"type": "Feature", "geometry": {"type": "Point", "coordinates": [34.4417, 31.518]}, "properties": {"location_name": "Red Crescent Society, Gaza Strip (General), Gaza Strip", "days": 1}}, {"type": "Feature", "geometry": {"type": "Point", "coordinates": [34.4443, 31.521]}, "properties": {"location_name": "Palestinian Legislative Council, Gaza Strip (General), Gaza Strip", "days": 1}}, {"type": "Feature", "geometry": {"type": "Point", "coordinates": [34.4506, 31.5271]}, "properties": {"location_name": "Jordan Embassy, Gaza Strip (General), Gaza Strip", "days": 1}}, {"type": "Feature", "geometry": {"type": "Point", "coordinates": [37.3725, 36.077]}, "properties": {"location_name": "Al Safira, ?Alab, Syria", "days": 1}}, {"type": "Feature", "geometry": {"type": "Point", "coordinates": [37.4399, 36.1975]}, "properties": {"location_name": "Taybe, ?Alab, Syria", "days": 1}}, {"type": "Feature", "geometry": {"type": "Point", "coordinates": [35.2261, 33.1514]}, "properties": {"location_name": "Majdal Zun, Liban-Sud, Lebanon", "days": 1}}, {"type": "Feature", "geometry": {"type": "Point", "coordinates": [38.55, 34.6333]}, "properties": {"location_name": "Najdi, ?Ims, Syria", "days": 1}}, {"type": "Feature", "geometry": {"type": "Point", "coordinates": [35.2265, 32.4566]}, "properties": {"location_name": "Kafr Qud, West Bank (General), West Bank", "days": 1}}, {"type": "Feature", "geometry": {"type": "Point", "coordinates": [46.6956, 24.9581]}, "properties": {"location_name": "King Khalid International, Ar Riya?, Saudi Arabia", "days": 1}}, {"type": "Feature", "geometry": {"type": "Point", "coordinates": [47.1457, 34.4869]}, "properties": {"location_name": "Kenesht, Kermanshah, Iran", "days": 1}}, {"type": "Feature", "geometry": {"type": "Point", "coordinates": [44.1457, 34.0148]}, "properties": {"location_name": "Balad, Sala? Ad Din, Iraq", "days": 1}}, {"type": "Feature", "geometry": {"type": "Point", "coordinates": [44.1619, 36.3372]}, "properties": {"location_name": "Khanzad, Liwa' Irbil, Iraq", "days": 1}}, {"type": "Feature", "geometry": {"type": "Point", "coordinates": [44.1944, 15.345]}, "properties": {"location_name": "Republican Hospital, Amanat Al `Asimah, Yemen", "days": 1}}, {"type": "Feature", "geometry": {"type": "Point", "coordinates": [44.1997, 15.3263]}, "properties": {"location_name": "Ministry Of Electricity, Amanat Al `Asimah, Yemen", "days": 1}}, {"type": "Feature", "geometry": {"type": "Point", "coordinates": [44.1997, 15.3466]}, "properties": {"location_name": "Chinese Embassy, Amanat Al `Asimah, Yemen", "days": 1}}, {"type": "Feature", "geometry": {"type": "Point", "coordinates": [44.2008, 36.3816]}, "properties": {"location_name": "Salah Ad Din, Liwa' Irbil, Iraq", "days": 1}}, {"type": "Feature", "geometry": {"type": "Point", "coordinates": [44.2036, 15.2731]}, "properties": {"location_name": "Bayt Baws, SanA', Yemen", "days": 1}}, {"type": "Feature", "geometry": {"type": "Point", "coordinates": [44.4196, 32.4637]}, "properties": {"location_name": "Hilla, Babil, Iraq", "days": 1}}, {"type": "Feature", "geometry": {"type": "Point", "coordinates": [35.2275, 32.5085]}, "properties": {"location_name": "Silat Al-Harithiya, West Bank (General), West Bank", "days": 1}}, {"type": "Feature", "geometry": {"type": "Point", "coordinates": [35.2286, 33.1981]}, "properties": {"location_name": "Al-Qulaylah, Liban-Sud, Lebanon", "days": 1}}, {"type": "Feature", "geometry": {"type": "Point", "coordinates": [37.3266, 36.2251]}, "properties": {"location_name": "Afrin, ?Alab, Syria", "days": 1}}, {"type": "Feature", "geometry": {"type": "Point", "coordinates": [34.5411, 31.4333]}, "properties": {"location_name": "Tushiya, Hadarom, Israel", "days": 1}}, {"type": "Feature", "geometry": {"type": "Point", "coordinates": [48.5856, 15.9078]}, "properties": {"location_name": "Khashamir, ?A?Ramawt, Yemen", "days": 1}}, {"type": "Feature", "geometry": {"type": "Point", "coordinates": [48.7031, 32.1803]}, "properties": {"location_name": "Ali Saleh, Khuzestan, Iran", "days": 1}}, {"type": "Feature", "geometry": {"type": "Point", "coordinates": [48.7678, 31.9712]}, "properties": {"location_name": "Asadullah, Khuzestan, Iran", "days": 1}}, {"type": "Feature", "geometry": {"type": "Point", "coordinates": [48.7933, 15.9433]}, "properties": {"location_name": "Sayun, ?A?Ramawt, Yemen", "days": 1}}, {"type": "Feature", "geometry": {"type": "Point", "coordinates": [48.8167, 34.7333]}, "properties": {"location_name": "Basri, Hamadan, Iran", "days": 1}}, {"type": "Feature", "geometry": {"type": "Point", "coordinates": [35.2333, 33.2925]}, "properties": {"location_name": "Shabriha, Liban-Sud, Lebanon", "days": 1}}, {"type": "Feature", "geometry": {"type": "Point", "coordinates": [45.3067, 15.4614]}, "properties": {"location_name": "Republican Palace, Ma'rib, Yemen", "days": 1}}, {"type": "Feature", "geometry": {"type": "Point", "coordinates": [45.3269, 15.4856]}, "properties": {"location_name": "Yemen Oil Company, Ma'rib, Yemen", "days": 1}}, {"type": "Feature", "geometry": {"type": "Point", "coordinates": [35.2383, 33.2678]}, "properties": {"location_name": "Burj El-Shamali, Liban-Sud, Lebanon", "days": 1}}, {"type": "Feature", "geometry": {"type": "Point", "coordinates": [35.241, 31.9267]}, "properties": {"location_name": "Beitin, West Bank (General), West Bank", "days": 1}}, {"type": "Feature", "geometry": {"type": "Point", "coordinates": [35.2467, 33.2103]}, "properties": {"location_name": "Al-Malikiyah, Liban-Sud, Lebanon", "days": 1}}, {"type": "Feature", "geometry": {"type": "Point", "coordinates": [45.6308, 38.9558]}, "properties": {"location_name": "Julfa, NaxçAn**, Azerbaijan", "days": 1}}, {"type": "Feature", "geometry": {"type": "Point", "coordinates": [46.1139, 35.1608]}, "properties": {"location_name": "Hawar, As Sulaymaniyah, Iraq", "days": 1}}, {"type": "Feature", "geometry": {"type": "Point", "coordinates": [35.1999, 32.0314]}, "properties": {"location_name": "Abwein, West Bank (General), West Bank", "days": 1}}, {"type": "Feature", "geometry": {"type": "Point", "coordinates": [46.6219, 24.7239]}, "properties": {"location_name": "King Saud University, Ar Riya?, Saudi Arabia", "days": 1}}, {"type": "Feature", "geometry": {"type": "Point", "coordinates": [35.2943, 32.07]}, "properties": {"location_name": "Qaryut, West Bank (General), West Bank", "days": 1}}, {"type": "Feature", "geometry": {"type": "Point", "coordinates": [35.2953, 33.2561]}, "properties": {"location_name": "Wadi Jilu, Liban-Sud, Lebanon", "days": 1}}, {"type": "Feature", "geometry": {"type": "Point", "coordinates": [34.2736, 31.2839]}, "properties": {"location_name": "Khirbat Al-Adas, Gaza Strip (General), Gaza Strip", "days": 1}}, {"type": "Feature", "geometry": {"type": "Point", "coordinates": [35.2971, 32.8642]}, "properties": {"location_name": "Sakhnin, Ha?Afon, Israel", "days": 1}}, {"type": "Feature", "geometry": {"type": "Point", "coordinates": [34.4515, 31.5276]}, "properties": {"location_name": "Ministry Of The Interior, Gaza Strip (General), Gaza Strip", "days": 1}}, {"type": "Feature", "geometry": {"type": "Point", "coordinates": [35.3058, 33.2281]}, "properties": {"location_name": "Aytit, Liban-Sud, Lebanon", "days": 1}}, {"type": "Feature", "geometry": {"type": "Point", "coordinates": [34.4599, 31.5065]}, "properties": {"location_name": "Gaza Municipality, Gaza Strip (General), Gaza Strip", "days": 1}}, {"type": "Feature", "geometry": {"type": "Point", "coordinates": [35.3086, 33.2731]}, "properties": {"location_name": "Marakah, Liban-Sud, Lebanon", "days": 1}}, {"type": "Feature", "geometry": {"type": "Point", "coordinates": [35.2498, 33.0594]}, "properties": {"location_name": "Gornot Hagalil, Ha?Afon, Israel", "days": 1}}, {"type": "Feature", "geometry": {"type": "Point", "coordinates": [34.4667, 31.5167]}, "properties": {"location_name": "Al-Mashahira, Gaza Strip (General), Gaza Strip", "days": 1}}, {"type": "Feature", "geometry": {"type": "Point", "coordinates": [35.25, 33.0833]}, "properties": {"location_name": "Qusayr, Ha?Afon, Israel", "days": 1}}, {"type": "Feature", "geometry": {"type": "Point", "coordinates": [35.2512, 31.9492]}, "properties": {"location_name": "Ein Yabrud, West Bank (General), West Bank", "days": 1}}, {"type": "Feature", "geometry": {"type": "Point", "coordinates": [42.7339, 35.5729]}, "properties": {"location_name": "Hatra, NinawáZ, Iraq", "days": 1}}, {"type": "Feature", "geometry": {"type": "Point", "coordinates": [48.2817, 33.3971]}, "properties": {"location_name": "Shahinshah, Lorestan, Iran", "days": 1}}, {"type": "Feature", "geometry": {"type": "Point", "coordinates": [48.5667, 32.1167]}, "properties": {"location_name": "Deylam, Khuzestan, Iran", "days": 1}}, {"type": "Feature", "geometry": {"type": "Point", "coordinates": [48.8567, 32.0455]}, "properties": {"location_name": "Shushtar, Khuzestan, Iran", "days": 1}}, {"type": "Feature", "geometry": {"type": "Point", "coordinates": [48.8849, 32.1557]}, "properties": {"location_name": "Morteza, Khuzestan, Iran", "days": 1}}, {"type": "Feature", "geometry": {"type": "Point", "coordinates": [49.0746, 36.2997]}, "properties": {"location_name": "Khorosan, Zanjan, Iran", "days": 1}}, {"type": "Feature", "geometry": {"type": "Point", "coordinates": [50.5069, 26.1153]}, "properties": {"location_name": "Hamad Town, Al Muhafazah Ash Shamaliyah, Bahrain", "days": 1}}, {"type": "Feature", "geometry": {"type": "Point", "coordinates": [50.55, 26.0]}, "properties": {"location_name": "Bahrain Island, Bahrain (General), Bahrain", "days": 1}}, {"type": "Feature", "geometry": {"type": "Point", "coordinates": [50.6303, 26.2714]}, "properties": {"location_name": "Muharraq Island, Al Mu?Arraq, Bahrain", "days": 1}}, {"type": "Feature", "geometry": {"type": "Point", "coordinates": [35.2564, 33.0994]}, "properties": {"location_name": "Bustan, Liban-Sud, Lebanon", "days": 1}}, {"type": "Feature", "geometry": {"type": "Point", "coordinates": [47.445, 34.3996]}, "properties": {"location_name": "Bisitun, Kermanshah, Iran", "days": 1}}, {"type": "Feature", "geometry": {"type": "Point", "coordinates": [34.3734, 31.4251]}, "properties": {"location_name": "Katif, Gaza Strip (General), Gaza Strip", "days": 1}}, {"type": "Feature", "geometry": {"type": "Point", "coordinates": [51.6719, 32.6574]}, "properties": {"location_name": "Chehel Sotun, Esfahan, Iran", "days": 1}}, {"type": "Feature", "geometry": {"type": "Point", "coordinates": [51.305, 35.6435]}, "properties": {"location_name": "Yaft Abad, Tehran, Iran", "days": 1}}, {"type": "Feature", "geometry": {"type": "Point", "coordinates": [51.3862, 35.6276]}, "properties": {"location_name": "Khaniabad, Tehran, Iran", "days": 1}}, {"type": "Feature", "geometry": {"type": "Point", "coordinates": [35.2566, 33.0278]}, "properties": {"location_name": "Miilya, Ha?Afon, Israel", "days": 1}}, {"type": "Feature", "geometry": {"type": "Point", "coordinates": [51.4593, 32.5264]}, "properties": {"location_name": "Qaleh Mir, Esfahan, Iran", "days": 1}}, {"type": "Feature", "geometry": {"type": "Point", "coordinates": [51.4728, 35.8169]}, "properties": {"location_name": "Niavaran, Tehran, Iran", "days": 1}}, {"type": "Feature", "geometry": {"type": "Point", "coordinates": [51.5331, 35.7919]}, "properties": {"location_name": "Abbasiyyeh, Tehran, Iran", "days": 1}}, {"type": "Feature", "geometry": {"type": "Point", "coordinates": [53.9968, 16.947]}, "properties": {"location_name": "Raysut, Z¸Ufar, Oman", "days": 1}}, {"type": "Feature", "geometry": {"type": "Point", "coordinates": [54.0119, 16.9461]}, "properties": {"location_name": "Port Salalah, Z¸Ufar, Oman", "days": 1}}, {"type": "Feature", "geometry": {"type": "Point", "coordinates": [54.3485, 31.8795]}, "properties": {"location_name": "Khorramshah, Yazd, Iran", "days": 1}}, {"type": "Feature", "geometry": {"type": "Point", "coordinates": [51.6786, 35.7917]}, "properties": {"location_name": "Latian Dam, Tehran, Iran", "days": 1}}, {"type": "Feature", "geometry": {"type": "Point", "coordinates": [51.7342, 32.4161]}, "properties": {"location_name": "Majidiyeh, Esfahan, Iran", "days": 1}}, {"type": "Feature", "geometry": {"type": "Point", "coordinates": [51.7875, 32.5638]}, "properties": {"location_name": "Zardanjan, Esfahan, Iran", "days": 1}}, {"type": "Feature", "geometry": {"type": "Point", "coordinates": [52.4806, 29.7066]}, "properties": {"location_name": "Mahdieh, Fars, Iran", "days": 1}}, {"type": "Feature", "geometry": {"type": "Point", "coordinates": [52.8025, 29.8742]}, "properties": {"location_name": "Marvdasht, Fars, Iran", "days": 1}}, {"type": "Feature", "geometry": {"type": "Point", "coordinates": [48.2003, 32.1321]}, "properties": {"location_name": "Ahrar, Khuzestan, Iran", "days": 1}}, {"type": "Feature", "geometry": {"type": "Point", "coordinates": [34.4016, 31.3511]}, "properties": {"location_name": "Yair, Hadarom, Israel", "days": 1}}, {"type": "Feature", "geometry": {"type": "Point", "coordinates": [35.2613, 31.9762]}, "properties": {"location_name": "Silwad, West Bank (General), West Bank", "days": 1}}, {"type": "Feature", "geometry": {"type": "Point", "coordinates": [34.4097, 31.3211]}, "properties": {"location_name": "Hapoel, Hadarom, Israel", "days": 1}}, {"type": "Feature", "geometry": {"type": "Point", "coordinates": [35.1879, 31.7155]}, "properties": {"location_name": "Beit Jala, West Bank (General), West Bank", "days": 1}}, {"type": "Feature", "geometry": {"type": "Point", "coordinates": [35.2667, 33.0833]}, "properties": {"location_name": "Iqrit, Ha?Afon, Israel", "days": 1}}, {"type": "Feature", "geometry": {"type": "Point", "coordinates": [35.1942, 33.2758]}, "properties": {"location_name": "Fanar, Liban-Sud, Lebanon", "days": 1}}, {"type": "Feature", "geometry": {"type": "Point", "coordinates": [35.2711, 33.2536]}, "properties": {"location_name": "Bazouriye, Liban-Sud, Lebanon", "days": 1}}, {"type": "Feature", "geometry": {"type": "Point", "coordinates": [35.2856, 32.0354]}, "properties": {"location_name": "Turmus Ayya, West Bank (General), West Bank", "days": 1}}, {"type": "Feature", "geometry": {"type": "Point", "coordinates": [35.1139, 32.6542]}, "properties": {"location_name": "Yokneam, Ha?Afon, Israel", "days": 1}}, {"type": "Feature", "geometry": {"type": "Point", "coordinates": [35.114, 32.7615]}, "properties": {"location_name": "Ibtin, H_efa, Israel", "days": 1}}, {"type": "Feature", "geometry": {"type": "Point", "coordinates": [29.8777, 30.8759]}, "properties": {"location_name": "Al-Jala, Al Iskandariyah, Egypt", "days": 1}}, {"type": "Feature", "geometry": {"type": "Point", "coordinates": [31.2394, 30.0383]}, "properties": {"location_name": "Ministry Of Finance, Al Qahirah, Egypt", "days": 1}}, {"type": "Feature", "geometry": {"type": "Point", "coordinates": [31.2395, 30.0525]}, "properties": {"location_name": "High Court, Al Qahirah, Egypt", "days": 1}}, {"type": "Feature", "geometry": {"type": "Point", "coordinates": [31.277, 30.0636]}, "properties": {"location_name": "College Of Engineering, Al Qahirah, Egypt", "days": 1}}, {"type": "Feature", "geometry": {"type": "Point", "coordinates": [31.2835, 30.0884]}, "properties": {"location_name": "Garden City, Al Qahirah, Egypt", "days": 1}}]}