{"type":"FeatureCollection","metadata":{"layer":"heritage_3d","title":"Heritage at Risk - 3D models","description":"Curated sites with a public 3D model (laser scan, photogrammetry or reconstruction). Context layer, no threat score. is_whs=false marks destroyed non-WHS icons (e.g. Old City of Mosul).","sources":"CyArk / Open Heritage 3D, Sketchfab (Global Digital Heritage, Tech 4 Heritage, arck-project, Rekrei)"},"features":[{"type":"Feature","geometry":{"type":"Point","coordinates":[31.62581,22.33722]},"properties":{"name":"Abu Simbel (Great Temple)","country_iso2":"EG","is_whs":true,"unesco_site_id":88,"source":"Sketchfab","author":"v777","license":"CC BY-NC-ND (see model page)","model_url":"https://sketchfab.com/3d-models/abu-simbel-temple-30b16b33c6834cb9aacb6d739a0b7789","coord_source":"unesco_whc","note":"Model of the rock-cut Great Temple of Ramesses II (Nubian Monuments WHS)"}},{"type":"Feature","geometry":{"type":"Point","coordinates":[36.20417,34.00667]},"properties":{"name":"Baalbek","country_iso2":"LB","is_whs":true,"unesco_site_id":294,"source":"Sketchfab","author":"Arqueomodel3D","license":"see model page","model_url":"https://sketchfab.com/3d-models/baalbek-complex-lebanon-6a61b4a19fad4b579a6852df145b2360","coord_source":"unesco_whc","note":"Full Roman temple complex (Jupiter Bacchus)"}},{"type":"Feature","geometry":{"type":"Point","coordinates":[44.42083,32.54197]},"properties":{"name":"Babylon","country_iso2":"IQ","is_whs":true,"unesco_site_id":278,"source":"CyArk / Open Heritage 3D","author":"CyArk","license":"CC (see portal)","model_url":"https://www.cyark.org/projects/babylon","coord_source":"unesco_whc","note":"Laser-scan documentation of the Ishtar Gate and temples (2009)"}},{"type":"Feature","geometry":{"type":"Point","coordinates":[31.1325,29.9773]},"properties":{"name":"Giza Pyramid Complex","country_iso2":"EG","is_whs":true,"unesco_site_id":86,"source":"Sketchfab","author":"Arqueomodel3D","license":"see model page","model_url":"https://sketchfab.com/3d-models/the-giza-pyramid-complex-egypt-710ce0d3291f4e0ca054482de637028c","coord_source":"approx_giza_pyramids","note":"Photogrammetry of the three pyramids of Giza (part of the Memphis Pyramid Fields WHS)"}},{"type":"Feature","geometry":{"type":"Point","coordinates":[37.955,26.78361]},"properties":{"name":"Hegra - Qasr al-Farid (Mada'in Salih)","country_iso2":"SA","is_whs":true,"unesco_site_id":1293,"source":"Sketchfab","author":"Novxlab","license":"see model page","model_url":"https://sketchfab.com/3d-models/al-ula-qasr-al-farid-madain-saleh-9b18367aac28420bbc066d65e73b9acd","coord_source":"unesco_whc","note":"Photogrammetry of Qasr al-Farid the iconic unfinished Nabataean tomb at Hegra"}},{"type":"Feature","geometry":{"type":"Point","coordinates":[52.89028,29.93444]},"properties":{"name":"Persepolis","country_iso2":"IR","is_whs":true,"unesco_site_id":114,"source":"Sketchfab","author":"VIGEA - Virtual Geographic Agency","license":"see model page","model_url":"https://sketchfab.com/3d-models/persepolis-archaeological-site-iran-e8f36eab22ae4e7fb94d3a7cc9939669","coord_source":"unesco_whc","note":"Photogrammetry of the Achaemenid terrace"}},{"type":"Feature","geometry":{"type":"Point","coordinates":[35.44333,30.33056]},"properties":{"name":"Petra (Ad-Deir / The Monastery)","country_iso2":"JO","is_whs":true,"unesco_site_id":326,"source":"CyArk / Open Heritage 3D","author":"CyArk","license":"CC (see portal)","model_url":"https://www.cyark.org/projects/petra-ad-deir/overview","coord_source":"unesco_whc","note":"3D documentation of Ad-Deir (the Monastery), Petra's monumental rock-cut facade"}},{"type":"Feature","geometry":{"type":"Point","coordinates":[38.26667,34.55417]},"properties":{"name":"Site of Palmyra","country_iso2":"SY","is_whs":true,"unesco_site_id":23,"source":"Sketchfab","author":"arck-project","license":"see model page","model_url":"https://sketchfab.com/arck-project/collections/cultural-heritage-of-syria-palmyra-b7c7f95b38e1493ea06479f22dda6f32","coord_source":"unesco_whc","note":"Collection of Palmyra monuments (Temple of Bel Roman Theatre Monumental Arch)"}},{"type":"Feature","geometry":{"type":"Point","coordinates":[43.12972,36.34472]},"properties":{"name":"Great Mosque of al-Nuri (Old City of Mosul)","country_iso2":"IQ","is_whs":false,"unesco_site_id":null,"source":"Sketchfab","author":"JuanAtelier","license":"see model page","model_url":"https://sketchfab.com/3d-models/al-nuri-great-mosque-reconstruction-e89b568d0cc54fb3a158019acd349fde","coord_source":"approx_osm_wikipedia","note":"Reconstruction of the 12th-c. mosque destroyed by IS in 2017 (not a WHS)"}},{"type":"Feature","geometry":{"type":"Point","coordinates":[43.32694,36.09861]},"properties":{"name":"Nimrud (Kalhu)","country_iso2":"IQ","is_whs":false,"unesco_site_id":null,"source":"Sketchfab / Rekrei","author":"Rekrei (Project Mosul)","license":"see model page","model_url":"https://sketchfab.com/rekrei/collections/rekrei-5a588886a5124fda821d7d9a244bef9d","coord_source":"approx_osm_wikipedia","note":"Crowdsourced reconstructions of Assyrian reliefs bulldozed by IS in 2015 (not a WHS)"}},{"type":"Feature","geometry":{"type":"Point","coordinates":[43.1525,36.35972]},"properties":{"name":"Nineveh","country_iso2":"IQ","is_whs":false,"unesco_site_id":null,"source":"Sketchfab / Rekrei","author":"Rekrei (Project Mosul)","license":"see model page","model_url":"https://sketchfab.com/rekrei/collections/rekrei-5a588886a5124fda821d7d9a244bef9d","coord_source":"approx_osm_wikipedia","note":"Reconstructed Mosul Museum artefacts from Nineveh (not a WHS)"}}]}