{
  "type": "FeatureCollection",
  "metadata": {
    "title": "Heritage at Risk: threat score per UNESCO World Heritage site (MENA)",
    "generated": "2026-08-20",
    "site_count": 105,
    "score_max": 10,
    "score_components": {
      "in_danger": {
        "weight": 3,
        "source": "UNESCO World Heritage Centre"
      },
      "travel_warning": {
        "weight": 3,
        "source": "German Federal Foreign Office"
      },
      "conflict": {
        "weight": 3,
        "source": "UCDP GED (Uppsala Conflict Data Program)",
        "method": "log-scaled subscore of the conflict events within the radius",
        "radius_km": 30.0
      },
      "natural_hazard": {
        "weight": 1,
        "source": "ThinkHazard! (World Bank GFDRR)",
        "hazards": [
          "earthquake",
          "river flood"
        ],
        "method": "max of EQ/FL level"
      }
    },
    "threat_levels": [
      {
        "level": "low",
        "label": "Low",
        "color": "#1a9641",
        "max_score": 3.0
      },
      {
        "level": "medium",
        "label": "Medium",
        "color": "#fdae61",
        "max_score": 6.0
      },
      {
        "level": "high",
        "label": "High",
        "color": "#d7191c",
        "max_score": 10.0
      }
    ],
    "crs": "urn:ogc:def:crs:OGC:1.3:CRS84",
    "license": "Sources under their respective licences; derived artefact for an academic project.",
    "contact": "HeritageAtRisk/0.1 (academic project; sebastian.macherey@gmail.com)",
    "notes": "Threat score 0 to 10 from four weighted sources. Danger is encoded not only by colour but also via threat_level/label (accessibility)."
  },
  "features": [
    {
      "type": "Feature",
      "geometry": {
        "type": "Point",
        "coordinates": [
          34.3663611111,
          31.4473055556
        ]
      },
      "properties": {
        "site_id": 1749,
        "name": "Saint Hilarion Monastery/ Tell Umm Amer",
        "country_iso2": "PS",
        "category": "Cultural",
        "http_url": "https://whc.unesco.org/en/list/1749",
        "in_danger": true,
        "warning_level": 2,
        "conflict_count": 1030,
        "eq_level": "VLO",
        "fl_level": "LOW",
        "score_in_danger": 3,
        "score_travel": 3.0,
        "score_conflict": 3.0,
        "score_natural": 0.3333333333333333,
        "total_score": 9.33,
        "threat_level": "high",
        "threat_label": "High",
        "threat_color": "#d7191c"
      }
    },
    {
      "type": "Feature",
      "geometry": {
        "type": "Point",
        "coordinates": [
          35.1588888889,
          31.7163888889
        ]
      },
      "properties": {
        "site_id": 1492,
        "name": "Palestine: Land of Olives and Vines – Cultural Landscape of Southern Jerusalem, Battir",
        "country_iso2": "PS",
        "category": "Cultural",
        "http_url": "https://whc.unesco.org/en/list/1492",
        "in_danger": true,
        "warning_level": 2,
        "conflict_count": 20,
        "eq_level": "LOW",
        "fl_level": "VLO",
        "score_in_danger": 3,
        "score_travel": 3.0,
        "score_conflict": 2.80334459294958,
        "score_natural": 0.3333333333333333,
        "total_score": 9.14,
        "threat_level": "high",
        "threat_label": "High",
        "threat_color": "#d7191c"
      }
    },
    {
      "type": "Feature",
      "geometry": {
        "type": "Point",
        "coordinates": [
          45.2687527778,
          15.3975666666
        ]
      },
      "properties": {
        "site_id": 1700,
        "name": "Landmarks of the Ancient Kingdom of Saba, Marib",
        "country_iso2": "YE",
        "category": "Cultural",
        "http_url": "https://whc.unesco.org/en/list/1700",
        "in_danger": true,
        "warning_level": 2,
        "conflict_count": 10,
        "eq_level": "VLO",
        "fl_level": "MED",
        "score_in_danger": 3,
        "score_travel": 3.0,
        "score_conflict": 2.2079412732084247,
        "score_natural": 0.6666666666666666,
        "total_score": 8.87,
        "threat_level": "high",
        "threat_label": "High",
        "threat_color": "#d7191c"
      }
    },
    {
      "type": "Feature",
      "geometry": {
        "type": "Point",
        "coordinates": [
          36.3097222222,
          33.5108333333
        ]
      },
      "properties": {
        "site_id": 20,
        "name": "Ancient City of Damascus",
        "country_iso2": "SY",
        "category": "Cultural",
        "http_url": "https://whc.unesco.org/en/list/20",
        "in_danger": true,
        "warning_level": 2,
        "conflict_count": 8,
        "eq_level": "MED",
        "fl_level": "LOW",
        "score_in_danger": 3,
        "score_travel": 3.0,
        "score_conflict": 2.023167102350973,
        "score_natural": 0.6666666666666666,
        "total_score": 8.69,
        "threat_level": "high",
        "threat_label": "High",
        "threat_color": "#d7191c"
      }
    },
    {
      "type": "Feature",
      "geometry": {
        "type": "Point",
        "coordinates": [
          37.1627777778,
          36.1991666667
        ]
      },
      "properties": {
        "site_id": 21,
        "name": "Ancient City of Aleppo",
        "country_iso2": "SY",
        "category": "Cultural",
        "http_url": "https://whc.unesco.org/en/list/21",
        "in_danger": true,
        "warning_level": 2,
        "conflict_count": 5,
        "eq_level": "MED",
        "fl_level": "HIG",
        "score_in_danger": 3,
        "score_travel": 3.0,
        "score_conflict": 1.649821711835576,
        "score_natural": 1.0,
        "total_score": 8.65,
        "threat_level": "high",
        "threat_label": "High",
        "threat_color": "#d7191c"
      }
    },
    {
      "type": "Feature",
      "geometry": {
        "type": "Point",
        "coordinates": [
          35.1083333333,
          31.5244444444
        ]
      },
      "properties": {
        "site_id": 1565,
        "name": "Hebron/Al-Khalil Old Town",
        "country_iso2": "PS",
        "category": "Cultural",
        "http_url": "https://whc.unesco.org/en/list/1565",
        "in_danger": true,
        "warning_level": 2,
        "conflict_count": 10,
        "eq_level": "LOW",
        "fl_level": "VLO",
        "score_in_danger": 3,
        "score_travel": 3.0,
        "score_conflict": 2.2079412732084247,
        "score_natural": 0.3333333333333333,
        "total_score": 8.54,
        "threat_level": "high",
        "threat_label": "High",
        "threat_color": "#d7191c"
      }
    },
    {
      "type": "Feature",
      "geometry": {
        "type": "Point",
        "coordinates": [
          36.5686111111,
          35.6697222222
        ]
      },
      "properties": {
        "site_id": 1348,
        "name": "Ancient Villages of Northern Syria",
        "country_iso2": "SY",
        "category": "Cultural",
        "http_url": "https://whc.unesco.org/en/list/1348",
        "in_danger": true,
        "warning_level": 2,
        "conflict_count": 6,
        "eq_level": "MED",
        "fl_level": "VLO",
        "score_in_danger": 3,
        "score_travel": 3.0,
        "score_conflict": 1.791761041774094,
        "score_natural": 0.6666666666666666,
        "total_score": 8.46,
        "threat_level": "high",
        "threat_label": "High",
        "threat_color": "#d7191c"
      }
    },
    {
      "type": "Feature",
      "geometry": {
        "type": "Point",
        "coordinates": [
          36.2944444444,
          34.7566666667
        ]
      },
      "properties": {
        "site_id": 1229,
        "name": "Crac des Chevaliers and Qal’at Salah El-Din",
        "country_iso2": "SY",
        "category": "Cultural",
        "http_url": "https://whc.unesco.org/en/list/1229",
        "in_danger": true,
        "warning_level": 2,
        "conflict_count": 5,
        "eq_level": "MED",
        "fl_level": "MED",
        "score_in_danger": 3,
        "score_travel": 3.0,
        "score_conflict": 1.649821711835576,
        "score_natural": 0.6666666666666666,
        "total_score": 8.32,
        "threat_level": "high",
        "threat_label": "High",
        "threat_color": "#d7191c"
      }
    },
    {
      "type": "Feature",
      "geometry": {
        "type": "Point",
        "coordinates": [
          48.62667,
          15.92694
        ]
      },
      "properties": {
        "site_id": 192,
        "name": "Old Walled City of Shibam",
        "country_iso2": "YE",
        "category": "Cultural",
        "http_url": "https://whc.unesco.org/en/list/192",
        "in_danger": true,
        "warning_level": 2,
        "conflict_count": 5,
        "eq_level": "VLO",
        "fl_level": "LOW",
        "score_in_danger": 3,
        "score_travel": 3.0,
        "score_conflict": 1.649821711835576,
        "score_natural": 0.3333333333333333,
        "total_score": 7.98,
        "threat_level": "high",
        "threat_label": "High",
        "threat_color": "#d7191c"
      }
    },
    {
      "type": "Feature",
      "geometry": {
        "type": "Point",
        "coordinates": [
          44.20805556,
          15.35555556
        ]
      },
      "properties": {
        "site_id": 385,
        "name": "Old City of Sana'a",
        "country_iso2": "YE",
        "category": "Cultural",
        "http_url": "https://whc.unesco.org/en/list/385",
        "in_danger": true,
        "warning_level": 2,
        "conflict_count": 5,
        "eq_level": "NDA",
        "fl_level": "LOW",
        "score_in_danger": 3,
        "score_travel": 3.0,
        "score_conflict": 1.649821711835576,
        "score_natural": 0.3333333333333333,
        "total_score": 7.98,
        "threat_level": "high",
        "threat_label": "High",
        "threat_color": "#d7191c"
      }
    },
    {
      "type": "Feature",
      "geometry": {
        "type": "Point",
        "coordinates": [
          36.4680555556,
          32.5169444445
        ]
      },
      "properties": {
        "site_id": 22,
        "name": "Ancient City of Bosra",
        "country_iso2": "SY",
        "category": "Cultural",
        "http_url": "https://whc.unesco.org/en/list/22",
        "in_danger": true,
        "warning_level": 2,
        "conflict_count": 2,
        "eq_level": "MED",
        "fl_level": "MED",
        "score_in_danger": 3,
        "score_travel": 3.0,
        "score_conflict": 1.0115835511754865,
        "score_natural": 0.6666666666666666,
        "total_score": 7.68,
        "threat_level": "high",
        "threat_label": "High",
        "threat_color": "#d7191c"
      }
    },
    {
      "type": "Feature",
      "geometry": {
        "type": "Point",
        "coordinates": [
          43.3155277778,
          14.1953333333
        ]
      },
      "properties": {
        "site_id": 611,
        "name": "Historic Town of Zabid",
        "country_iso2": "YE",
        "category": "Cultural",
        "http_url": "https://whc.unesco.org/en/list/611",
        "in_danger": true,
        "warning_level": 2,
        "conflict_count": 2,
        "eq_level": "LOW",
        "fl_level": "LOW",
        "score_in_danger": 3,
        "score_travel": 3.0,
        "score_conflict": 1.0115835511754865,
        "score_natural": 0.3333333333333333,
        "total_score": 7.34,
        "threat_level": "high",
        "threat_label": "High",
        "threat_color": "#d7191c"
      }
    },
    {
      "type": "Feature",
      "geometry": {
        "type": "Point",
        "coordinates": [
          38.2666666667,
          34.5541666667
        ]
      },
      "properties": {
        "site_id": 23,
        "name": "Site of Palmyra",
        "country_iso2": "SY",
        "category": "Cultural",
        "http_url": "https://whc.unesco.org/en/list/23",
        "in_danger": true,
        "warning_level": 2,
        "conflict_count": 1,
        "eq_level": "MED",
        "fl_level": "MED",
        "score_in_danger": 3,
        "score_travel": 3.0,
        "score_conflict": 0.6382381606600894,
        "score_natural": 0.6666666666666666,
        "total_score": 7.3,
        "threat_level": "high",
        "threat_label": "High",
        "threat_color": "#d7191c"
      }
    },
    {
      "type": "Feature",
      "geometry": {
        "type": "Point",
        "coordinates": [
          42.71833,
          35.58806
        ]
      },
      "properties": {
        "site_id": 277,
        "name": "Hatra",
        "country_iso2": "IQ",
        "category": "Cultural",
        "http_url": "https://whc.unesco.org/en/list/277",
        "in_danger": true,
        "warning_level": 2,
        "conflict_count": 1,
        "eq_level": "MED",
        "fl_level": "LOW",
        "score_in_danger": 3,
        "score_travel": 3.0,
        "score_conflict": 0.6382381606600894,
        "score_natural": 0.6666666666666666,
        "total_score": 7.3,
        "threat_level": "high",
        "threat_label": "High",
        "threat_color": "#d7191c"
      }
    },
    {
      "type": "Feature",
      "geometry": {
        "type": "Point",
        "coordinates": [
          43.9155883333,
          34.0802897222
        ]
      },
      "properties": {
        "site_id": 276,
        "name": "Samarra Archaeological City",
        "country_iso2": "IQ",
        "category": "Cultural",
        "http_url": "https://whc.unesco.org/en/list/276",
        "in_danger": true,
        "warning_level": 2,
        "conflict_count": 0,
        "eq_level": "VLO",
        "fl_level": "HIG",
        "score_in_danger": 3,
        "score_travel": 3.0,
        "score_conflict": 0.0,
        "score_natural": 1.0,
        "total_score": 7.0,
        "threat_level": "high",
        "threat_label": "High",
        "threat_color": "#d7191c"
      }
    },
    {
      "type": "Feature",
      "geometry": {
        "type": "Point",
        "coordinates": [
          43.2611111111,
          35.4566666667
        ]
      },
      "properties": {
        "site_id": 1130,
        "name": "Ashur (Qal'at Sherqat)",
        "country_iso2": "IQ",
        "category": "Cultural",
        "http_url": "https://whc.unesco.org/en/list/1130",
        "in_danger": true,
        "warning_level": 2,
        "conflict_count": 0,
        "eq_level": "MED",
        "fl_level": "MED",
        "score_in_danger": 3,
        "score_travel": 3.0,
        "score_conflict": 0.0,
        "score_natural": 0.6666666666666666,
        "total_score": 6.67,
        "threat_level": "high",
        "threat_label": "High",
        "threat_color": "#d7191c"
      }
    },
    {
      "type": "Feature",
      "geometry": {
        "type": "Point",
        "coordinates": [
          35.2075,
          31.7043527778
        ]
      },
      "properties": {
        "site_id": 1433,
        "name": "Birthplace of Jesus: Church of the Nativity and the Pilgrimage Route, Bethlehem",
        "country_iso2": "PS",
        "category": "Cultural",
        "http_url": "https://whc.unesco.org/en/list/1433",
        "in_danger": false,
        "warning_level": 2,
        "conflict_count": 20,
        "eq_level": "LOW",
        "fl_level": "VLO",
        "score_in_danger": 0,
        "score_travel": 3.0,
        "score_conflict": 2.80334459294958,
        "score_natural": 0.3333333333333333,
        "total_score": 6.14,
        "threat_level": "high",
        "threat_label": "High",
        "threat_color": "#d7191c"
      }
    },
    {
      "type": "Feature",
      "geometry": {
        "type": "Point",
        "coordinates": [
          35.2316666667,
          31.7777777778
        ]
      },
      "properties": {
        "site_id": 148,
        "name": "Old City of Jerusalem and its Walls",
        "country_iso2": "IL",
        "category": "Cultural",
        "http_url": "https://whc.unesco.org/en/list/148",
        "in_danger": true,
        "warning_level": 0,
        "conflict_count": 19,
        "eq_level": "LOW",
        "fl_level": "VLO",
        "score_in_danger": 3,
        "score_travel": 0.0,
        "score_conflict": 2.758419437786075,
        "score_natural": 0.3333333333333333,
        "total_score": 6.09,
        "threat_level": "high",
        "threat_label": "High",
        "threat_color": "#d7191c"
      }
    },
    {
      "type": "Feature",
      "geometry": {
        "type": "Point",
        "coordinates": [
          35.188875,
          32.2763388889
        ]
      },
      "properties": {
        "site_id": 1809,
        "name": "Sebastia",
        "country_iso2": "PS",
        "category": "Cultural",
        "http_url": "https://whc.unesco.org/en/list/1809",
        "in_danger": false,
        "warning_level": 2,
        "conflict_count": 27,
        "eq_level": "NDA",
        "fl_level": "NDA",
        "score_in_danger": 0,
        "score_travel": 3.0,
        "score_conflict": 3.0,
        "score_natural": 0.0,
        "total_score": 6.0,
        "threat_level": "medium",
        "threat_label": "Medium",
        "threat_color": "#fdae61"
      }
    },
    {
      "type": "Feature",
      "geometry": {
        "type": "Point",
        "coordinates": [
          35.4440555556,
          31.8713055556
        ]
      },
      "properties": {
        "site_id": 1687,
        "name": "Ancient Jericho/Tell es-Sultan",
        "country_iso2": "PS",
        "category": "Cultural",
        "http_url": "https://whc.unesco.org/en/list/1687",
        "in_danger": false,
        "warning_level": 2,
        "conflict_count": 9,
        "eq_level": "LOW",
        "fl_level": "MED",
        "score_in_danger": 0,
        "score_travel": 3.0,
        "score_conflict": 2.1201812771259854,
        "score_natural": 0.6666666666666666,
        "total_score": 5.79,
        "threat_level": "medium",
        "threat_label": "Medium",
        "threat_color": "#fdae61"
      }
    },
    {
      "type": "Feature",
      "geometry": {
        "type": "Point",
        "coordinates": [
          29.66666667,
          30.8358333333
        ]
      },
      "properties": {
        "site_id": 90,
        "name": "Abu Mena",
        "country_iso2": "EG",
        "category": "Cultural",
        "http_url": "https://whc.unesco.org/en/list/90",
        "in_danger": true,
        "warning_level": 1,
        "conflict_count": 0,
        "eq_level": "VLO",
        "fl_level": "HIG",
        "score_in_danger": 3,
        "score_travel": 1.5,
        "score_conflict": 0.0,
        "score_natural": 1.0,
        "total_score": 5.5,
        "threat_level": "medium",
        "threat_label": "Medium",
        "threat_color": "#fdae61"
      }
    },
    {
      "type": "Feature",
      "geometry": {
        "type": "Point",
        "coordinates": [
          35.1958333333,
          33.2691666667
        ]
      },
      "properties": {
        "site_id": 299,
        "name": "Tyre",
        "country_iso2": "LB",
        "category": "Cultural",
        "http_url": "https://whc.unesco.org/en/list/299",
        "in_danger": false,
        "warning_level": 1,
        "conflict_count": 113,
        "eq_level": "MED",
        "fl_level": "LOW",
        "score_in_danger": 0,
        "score_travel": 1.5,
        "score_conflict": 3.0,
        "score_natural": 0.6666666666666666,
        "total_score": 5.17,
        "threat_level": "medium",
        "threat_label": "Medium",
        "threat_color": "#fdae61"
      }
    },
    {
      "type": "Feature",
      "geometry": {
        "type": "Point",
        "coordinates": [
          35.9333333333,
          33.7319444444
        ]
      },
      "properties": {
        "site_id": 293,
        "name": "Anjar",
        "country_iso2": "LB",
        "category": "Cultural",
        "http_url": "https://whc.unesco.org/en/list/293",
        "in_danger": false,
        "warning_level": 1,
        "conflict_count": 12,
        "eq_level": "MED",
        "fl_level": "LOW",
        "score_in_danger": 0,
        "score_travel": 1.5,
        "score_conflict": 2.3617618393399105,
        "score_natural": 0.6666666666666666,
        "total_score": 4.53,
        "threat_level": "medium",
        "threat_label": "Medium",
        "threat_color": "#fdae61"
      }
    },
    {
      "type": "Feature",
      "geometry": {
        "type": "Point",
        "coordinates": [
          35.8241666667,
          34.4377777778
        ]
      },
      "properties": {
        "site_id": 1702,
        "name": "Rachid Karami International Fair-Tripoli",
        "country_iso2": "LB",
        "category": "Cultural",
        "http_url": "https://whc.unesco.org/en/list/1702",
        "in_danger": true,
        "warning_level": 1,
        "conflict_count": 0,
        "eq_level": "NDA",
        "fl_level": "VLO",
        "score_in_danger": 3,
        "score_travel": 1.5,
        "score_conflict": 0.0,
        "score_natural": 0.0,
        "total_score": 4.5,
        "threat_level": "medium",
        "threat_label": "Medium",
        "threat_color": "#fdae61"
      }
    },
    {
      "type": "Feature",
      "geometry": {
        "type": "Point",
        "coordinates": [
          35.2090583333,
          33.1456777777
        ]
      },
      "properties": {
        "site_id": 1810,
        "name": "Mount Amel Castles",
        "country_iso2": "LB",
        "category": "Cultural",
        "http_url": "https://whc.unesco.org/en/list/1810",
        "in_danger": false,
        "warning_level": 1,
        "conflict_count": 103,
        "eq_level": "NDA",
        "fl_level": "NDA",
        "score_in_danger": 0,
        "score_travel": 1.5,
        "score_conflict": 3.0,
        "score_natural": 0.0,
        "total_score": 4.5,
        "threat_level": "medium",
        "threat_label": "Medium",
        "threat_color": "#fdae61"
      }
    },
    {
      "type": "Feature",
      "geometry": {
        "type": "Point",
        "coordinates": [
          36.2041666667,
          34.0066666667
        ]
      },
      "properties": {
        "site_id": 294,
        "name": "Baalbek",
        "country_iso2": "LB",
        "category": "Cultural",
        "http_url": "https://whc.unesco.org/en/list/294",
        "in_danger": false,
        "warning_level": 1,
        "conflict_count": 10,
        "eq_level": "MED",
        "fl_level": "VLO",
        "score_in_danger": 0,
        "score_travel": 1.5,
        "score_conflict": 2.2079412732084247,
        "score_natural": 0.6666666666666666,
        "total_score": 4.37,
        "threat_level": "medium",
        "threat_label": "Medium",
        "threat_color": "#fdae61"
      }
    },
    {
      "type": "Feature",
      "geometry": {
        "type": "Point",
        "coordinates": [
          51.4205111111,
          35.6803666667
        ]
      },
      "properties": {
        "site_id": 1422,
        "name": "Golestan Palace",
        "country_iso2": "IR",
        "category": "Cultural",
        "http_url": "https://whc.unesco.org/en/list/1422",
        "in_danger": false,
        "warning_level": 2,
        "conflict_count": 1,
        "eq_level": "MED",
        "fl_level": "VLO",
        "score_in_danger": 0,
        "score_travel": 3.0,
        "score_conflict": 0.6382381606600894,
        "score_natural": 0.6666666666666666,
        "total_score": 4.3,
        "threat_level": "medium",
        "threat_label": "Medium",
        "threat_color": "#fdae61"
      }
    },
    {
      "type": "Feature",
      "geometry": {
        "type": "Point",
        "coordinates": [
          51.3983333333,
          35.6583055556
        ]
      },
      "properties": {
        "site_id": 1585,
        "name": "Trans-Iranian Railway",
        "country_iso2": "IR",
        "category": "Cultural",
        "http_url": "https://whc.unesco.org/en/list/1585",
        "in_danger": false,
        "warning_level": 2,
        "conflict_count": 1,
        "eq_level": "MED",
        "fl_level": "VLO",
        "score_in_danger": 0,
        "score_travel": 3.0,
        "score_conflict": 0.6382381606600894,
        "score_natural": 0.6666666666666666,
        "total_score": 4.3,
        "threat_level": "medium",
        "threat_label": "Medium",
        "threat_color": "#fdae61"
      }
    },
    {
      "type": "Feature",
      "geometry": {
        "type": "Point",
        "coordinates": [
          36.0488888889,
          34.2430555555
        ]
      },
      "properties": {
        "site_id": 850,
        "name": "Ouadi Qadisha (the Holy Valley) and the Forest of the Cedars of God (Horsh Arz el-Rab)",
        "country_iso2": "LB",
        "category": "Cultural",
        "http_url": "https://whc.unesco.org/en/list/850",
        "in_danger": false,
        "warning_level": 1,
        "conflict_count": 8,
        "eq_level": "MED",
        "fl_level": "LOW",
        "score_in_danger": 0,
        "score_travel": 1.5,
        "score_conflict": 2.023167102350973,
        "score_natural": 0.6666666666666666,
        "total_score": 4.19,
        "threat_level": "medium",
        "threat_label": "Medium",
        "threat_color": "#fdae61"
      }
    },
    {
      "type": "Feature",
      "geometry": {
        "type": "Point",
        "coordinates": [
          48.522118,
          32.00857
        ]
      },
      "properties": {
        "site_id": 113,
        "name": "Tchogha Zanbil",
        "country_iso2": "IR",
        "category": "Cultural",
        "http_url": "https://whc.unesco.org/en/list/113",
        "in_danger": false,
        "warning_level": 2,
        "conflict_count": 0,
        "eq_level": "MED",
        "fl_level": "HIG",
        "score_in_danger": 0,
        "score_travel": 3.0,
        "score_conflict": 0.0,
        "score_natural": 1.0,
        "total_score": 4.0,
        "threat_level": "medium",
        "threat_label": "Medium",
        "threat_color": "#fdae61"
      }
    },
    {
      "type": "Feature",
      "geometry": {
        "type": "Point",
        "coordinates": [
          52.89028,
          29.93444
        ]
      },
      "properties": {
        "site_id": 114,
        "name": "Persepolis",
        "country_iso2": "IR",
        "category": "Cultural",
        "http_url": "https://whc.unesco.org/en/list/114",
        "in_danger": false,
        "warning_level": 2,
        "conflict_count": 0,
        "eq_level": "HIG",
        "fl_level": "MED",
        "score_in_danger": 0,
        "score_travel": 3.0,
        "score_conflict": 0.0,
        "score_natural": 1.0,
        "total_score": 4.0,
        "threat_level": "medium",
        "threat_label": "Medium",
        "threat_color": "#fdae61"
      }
    },
    {
      "type": "Feature",
      "geometry": {
        "type": "Point",
        "coordinates": [
          51.6777777777,
          32.65745
        ]
      },
      "properties": {
        "site_id": 115,
        "name": "Meidan Emam, Esfahan",
        "country_iso2": "IR",
        "category": "Cultural",
        "http_url": "https://whc.unesco.org/en/list/115",
        "in_danger": false,
        "warning_level": 2,
        "conflict_count": 0,
        "eq_level": "MED",
        "fl_level": "HIG",
        "score_in_danger": 0,
        "score_travel": 3.0,
        "score_conflict": 0.0,
        "score_natural": 1.0,
        "total_score": 4.0,
        "threat_level": "medium",
        "threat_label": "Medium",
        "threat_color": "#fdae61"
      }
    },
    {
      "type": "Feature",
      "geometry": {
        "type": "Point",
        "coordinates": [
          44.4208333333,
          32.5419694444
        ]
      },
      "properties": {
        "site_id": 278,
        "name": "Babylon",
        "country_iso2": "IQ",
        "category": "Cultural",
        "http_url": "https://whc.unesco.org/en/list/278",
        "in_danger": false,
        "warning_level": 2,
        "conflict_count": 0,
        "eq_level": "LOW",
        "fl_level": "HIG",
        "score_in_danger": 0,
        "score_travel": 3.0,
        "score_conflict": 0.0,
        "score_natural": 1.0,
        "total_score": 4.0,
        "threat_level": "medium",
        "threat_label": "Medium",
        "threat_color": "#fdae61"
      }
    },
    {
      "type": "Feature",
      "geometry": {
        "type": "Point",
        "coordinates": [
          53.16729,
          30.19383
        ]
      },
      "properties": {
        "site_id": 1106,
        "name": "Pasargadae",
        "country_iso2": "IR",
        "category": "Cultural",
        "http_url": "https://whc.unesco.org/en/list/1106",
        "in_danger": false,
        "warning_level": 2,
        "conflict_count": 0,
        "eq_level": "HIG",
        "fl_level": "MED",
        "score_in_danger": 0,
        "score_travel": 3.0,
        "score_conflict": 0.0,
        "score_natural": 1.0,
        "total_score": 4.0,
        "threat_level": "medium",
        "threat_label": "Medium",
        "threat_color": "#fdae61"
      }
    },
    {
      "type": "Feature",
      "geometry": {
        "type": "Point",
        "coordinates": [
          48.7946944444,
          36.4176111111
        ]
      },
      "properties": {
        "site_id": 1188,
        "name": "Soltaniyeh",
        "country_iso2": "IR",
        "category": "Cultural",
        "http_url": "https://whc.unesco.org/en/list/1188",
        "in_danger": false,
        "warning_level": 2,
        "conflict_count": 0,
        "eq_level": "HIG",
        "fl_level": "MED",
        "score_in_danger": 0,
        "score_travel": 3.0,
        "score_conflict": 0.0,
        "score_natural": 1.0,
        "total_score": 4.0,
        "threat_level": "medium",
        "threat_label": "Medium",
        "threat_color": "#fdae61"
      }
    },
    {
      "type": "Feature",
      "geometry": {
        "type": "Point",
        "coordinates": [
          58.3666666667,
          29.11683
        ]
      },
      "properties": {
        "site_id": 1208,
        "name": "Bam and its Cultural Landscape",
        "country_iso2": "IR",
        "category": "Cultural",
        "http_url": "https://whc.unesco.org/en/list/1208",
        "in_danger": false,
        "warning_level": 2,
        "conflict_count": 0,
        "eq_level": "HIG",
        "fl_level": "LOW",
        "score_in_danger": 0,
        "score_travel": 3.0,
        "score_conflict": 0.0,
        "score_natural": 1.0,
        "total_score": 4.0,
        "threat_level": "medium",
        "threat_label": "Medium",
        "threat_color": "#fdae61"
      }
    },
    {
      "type": "Feature",
      "geometry": {
        "type": "Point",
        "coordinates": [
          53.2733333333,
          12.1236111111
        ]
      },
      "properties": {
        "site_id": 1263,
        "name": "Socotra Archipelago",
        "country_iso2": "YE",
        "category": "Natural",
        "http_url": "https://whc.unesco.org/en/list/1263",
        "in_danger": false,
        "warning_level": 2,
        "conflict_count": 0,
        "eq_level": "MED",
        "fl_level": "HIG",
        "score_in_danger": 0,
        "score_travel": 3.0,
        "score_conflict": 0.0,
        "score_natural": 1.0,
        "total_score": 4.0,
        "threat_level": "medium",
        "threat_label": "Medium",
        "threat_color": "#fdae61"
      }
    },
    {
      "type": "Feature",
      "geometry": {
        "type": "Point",
        "coordinates": [
          48.8358333333,
          32.0186111111
        ]
      },
      "properties": {
        "site_id": 1315,
        "name": "Shushtar Historical Hydraulic System",
        "country_iso2": "IR",
        "category": "Cultural",
        "http_url": "https://whc.unesco.org/en/list/1315",
        "in_danger": false,
        "warning_level": 2,
        "conflict_count": 0,
        "eq_level": "MED",
        "fl_level": "HIG",
        "score_in_danger": 0,
        "score_travel": 3.0,
        "score_conflict": 0.0,
        "score_natural": 1.0,
        "total_score": 4.0,
        "threat_level": "medium",
        "threat_label": "Medium",
        "threat_color": "#fdae61"
      }
    },
    {
      "type": "Feature",
      "geometry": {
        "type": "Point",
        "coordinates": [
          48.2913888889,
          38.2486111111
        ]
      },
      "properties": {
        "site_id": 1345,
        "name": "Sheikh Safi al-din Khānegāh and Shrine Ensemble in Ardabil",
        "country_iso2": "IR",
        "category": "Cultural",
        "http_url": "https://whc.unesco.org/en/list/1345",
        "in_danger": false,
        "warning_level": 2,
        "conflict_count": 0,
        "eq_level": "HIG",
        "fl_level": "VLO",
        "score_in_danger": 0,
        "score_travel": 3.0,
        "score_conflict": 0.0,
        "score_natural": 1.0,
        "total_score": 4.0,
        "threat_level": "medium",
        "threat_label": "Medium",
        "threat_color": "#fdae61"
      }
    },
    {
      "type": "Feature",
      "geometry": {
        "type": "Point",
        "coordinates": [
          51.6852777778,
          32.6697222222
        ]
      },
      "properties": {
        "site_id": 1397,
        "name": "Masjed-e Jāmé of Isfahan",
        "country_iso2": "IR",
        "category": "Cultural",
        "http_url": "https://whc.unesco.org/en/list/1397",
        "in_danger": false,
        "warning_level": 2,
        "conflict_count": 0,
        "eq_level": "MED",
        "fl_level": "HIG",
        "score_in_danger": 0,
        "score_travel": 3.0,
        "score_conflict": 0.0,
        "score_natural": 1.0,
        "total_score": 4.0,
        "threat_level": "medium",
        "threat_label": "Medium",
        "threat_color": "#fdae61"
      }
    },
    {
      "type": "Feature",
      "geometry": {
        "type": "Point",
        "coordinates": [
          55.169,
          37.2580277778
        ]
      },
      "properties": {
        "site_id": 1398,
        "name": "Gonbad-e Qābus",
        "country_iso2": "IR",
        "category": "Cultural",
        "http_url": "https://whc.unesco.org/en/list/1398",
        "in_danger": false,
        "warning_level": 2,
        "conflict_count": 0,
        "eq_level": "MED",
        "fl_level": "HIG",
        "score_in_danger": 0,
        "score_travel": 3.0,
        "score_conflict": 0.0,
        "score_natural": 1.0,
        "total_score": 4.0,
        "threat_level": "medium",
        "threat_label": "Medium",
        "threat_color": "#fdae61"
      }
    },
    {
      "type": "Feature",
      "geometry": {
        "type": "Point",
        "coordinates": [
          55.3755555556,
          30.1680555556
        ]
      },
      "properties": {
        "site_id": 1423,
        "name": "Cultural Landscape of Maymand",
        "country_iso2": "IR",
        "category": "Cultural",
        "http_url": "https://whc.unesco.org/en/list/1423",
        "in_danger": false,
        "warning_level": 2,
        "conflict_count": 0,
        "eq_level": "HIG",
        "fl_level": "LOW",
        "score_in_danger": 0,
        "score_travel": 3.0,
        "score_conflict": 0.0,
        "score_natural": 1.0,
        "total_score": 4.0,
        "threat_level": "medium",
        "threat_label": "Medium",
        "threat_color": "#fdae61"
      }
    },
    {
      "type": "Feature",
      "geometry": {
        "type": "Point",
        "coordinates": [
          48.2563722222,
          32.1894583333
        ]
      },
      "properties": {
        "site_id": 1455,
        "name": "Susa",
        "country_iso2": "IR",
        "category": "Cultural",
        "http_url": "https://whc.unesco.org/en/list/1455",
        "in_danger": false,
        "warning_level": 2,
        "conflict_count": 0,
        "eq_level": "MED",
        "fl_level": "HIG",
        "score_in_danger": 0,
        "score_travel": 3.0,
        "score_conflict": 0.0,
        "score_natural": 1.0,
        "total_score": 4.0,
        "threat_level": "medium",
        "threat_label": "Medium",
        "threat_color": "#fdae61"
      }
    },
    {
      "type": "Feature",
      "geometry": {
        "type": "Point",
        "coordinates": [
          47.4386111111,
          30.7391666667
        ]
      },
      "properties": {
        "site_id": 1481,
        "name": "The Ahwar of Southern Iraq: Refuge of Biodiversity and the Relict Landscape of the Mesopotamian Cities",
        "country_iso2": "IQ",
        "category": "Mixed",
        "http_url": "https://whc.unesco.org/en/list/1481",
        "in_danger": false,
        "warning_level": 2,
        "conflict_count": 0,
        "eq_level": "LOW",
        "fl_level": "HIG",
        "score_in_danger": 0,
        "score_travel": 3.0,
        "score_conflict": 0.0,
        "score_natural": 1.0,
        "total_score": 4.0,
        "threat_level": "medium",
        "threat_label": "Medium",
        "threat_color": "#fdae61"
      }
    },
    {
      "type": "Feature",
      "geometry": {
        "type": "Point",
        "coordinates": [
          58.8388888889,
          30.2161111111
        ]
      },
      "properties": {
        "site_id": 1505,
        "name": "Lut Desert",
        "country_iso2": "IR",
        "category": "Natural",
        "http_url": "https://whc.unesco.org/en/list/1505",
        "in_danger": false,
        "warning_level": 2,
        "conflict_count": 0,
        "eq_level": "HIG",
        "fl_level": "LOW",
        "score_in_danger": 0,
        "score_travel": 3.0,
        "score_conflict": 0.0,
        "score_natural": 1.0,
        "total_score": 4.0,
        "threat_level": "medium",
        "threat_label": "Medium",
        "threat_color": "#fdae61"
      }
    },
    {
      "type": "Feature",
      "geometry": {
        "type": "Point",
        "coordinates": [
          58.3986111111,
          29.0894444444
        ]
      },
      "properties": {
        "site_id": 1506,
        "name": "The Persian Qanat",
        "country_iso2": "IR",
        "category": "Cultural",
        "http_url": "https://whc.unesco.org/en/list/1506",
        "in_danger": false,
        "warning_level": 2,
        "conflict_count": 0,
        "eq_level": "HIG",
        "fl_level": "LOW",
        "score_in_danger": 0,
        "score_travel": 3.0,
        "score_conflict": 0.0,
        "score_natural": 1.0,
        "total_score": 4.0,
        "threat_level": "medium",
        "threat_label": "Medium",
        "threat_color": "#fdae61"
      }
    },
    {
      "type": "Feature",
      "geometry": {
        "type": "Point",
        "coordinates": [
          54.3759722223,
          27.1985
        ]
      },
      "properties": {
        "site_id": 1668,
        "name": "The Persian Caravanserai",
        "country_iso2": "IR",
        "category": "Cultural",
        "http_url": "https://whc.unesco.org/en/list/1668",
        "in_danger": false,
        "warning_level": 2,
        "conflict_count": 0,
        "eq_level": "HIG",
        "fl_level": "LOW",
        "score_in_danger": 0,
        "score_travel": 3.0,
        "score_conflict": 0.0,
        "score_natural": 1.0,
        "total_score": 4.0,
        "threat_level": "medium",
        "threat_label": "Medium",
        "threat_color": "#fdae61"
      }
    },
    {
      "type": "Feature",
      "geometry": {
        "type": "Point",
        "coordinates": [
          48.3393444444,
          33.4418472222
        ]
      },
      "properties": {
        "site_id": 1744,
        "name": "Prehistoric Sites of the Khorramabad Valley",
        "country_iso2": "IR",
        "category": "Cultural",
        "http_url": "https://whc.unesco.org/en/list/1744",
        "in_danger": false,
        "warning_level": 2,
        "conflict_count": 0,
        "eq_level": "HIG",
        "fl_level": "VLO",
        "score_in_danger": 0,
        "score_travel": 3.0,
        "score_conflict": 0.0,
        "score_natural": 1.0,
        "total_score": 4.0,
        "threat_level": "medium",
        "threat_label": "Medium",
        "threat_color": "#fdae61"
      }
    },
    {
      "type": "Feature",
      "geometry": {
        "type": "Point",
        "coordinates": [
          47.235,
          36.60388889
        ]
      },
      "properties": {
        "site_id": 1077,
        "name": "Takht-e Soleyman",
        "country_iso2": "IR",
        "category": "Cultural",
        "http_url": "https://whc.unesco.org/en/list/1077",
        "in_danger": false,
        "warning_level": 2,
        "conflict_count": 0,
        "eq_level": "MED",
        "fl_level": "VLO",
        "score_in_danger": 0,
        "score_travel": 3.0,
        "score_conflict": 0.0,
        "score_natural": 0.6666666666666666,
        "total_score": 3.67,
        "threat_level": "medium",
        "threat_label": "Medium",
        "threat_color": "#fdae61"
      }
    },
    {
      "type": "Feature",
      "geometry": {
        "type": "Point",
        "coordinates": [
          47.4366666666,
          34.3883333333
        ]
      },
      "properties": {
        "site_id": 1222,
        "name": "Bisotun",
        "country_iso2": "IR",
        "category": "Cultural",
        "http_url": "https://whc.unesco.org/en/list/1222",
        "in_danger": false,
        "warning_level": 2,
        "conflict_count": 0,
        "eq_level": "MED",
        "fl_level": "MED",
        "score_in_danger": 0,
        "score_travel": 3.0,
        "score_conflict": 0.0,
        "score_natural": 0.6666666666666666,
        "total_score": 3.67,
        "threat_level": "medium",
        "threat_label": "Medium",
        "threat_color": "#fdae61"
      }
    },
    {
      "type": "Feature",
      "geometry": {
        "type": "Point",
        "coordinates": [
          45.5727777778,
          38.9752777778
        ]
      },
      "properties": {
        "site_id": 1262,
        "name": "Armenian Monastic Ensembles of Iran",
        "country_iso2": "IR",
        "category": "Cultural",
        "http_url": "https://whc.unesco.org/en/list/1262",
        "in_danger": false,
        "warning_level": 2,
        "conflict_count": 0,
        "eq_level": "MED",
        "fl_level": "LOW",
        "score_in_danger": 0,
        "score_travel": 3.0,
        "score_conflict": 0.0,
        "score_natural": 0.6666666666666666,
        "total_score": 3.67,
        "threat_level": "medium",
        "threat_label": "Medium",
        "threat_color": "#fdae61"
      }
    },
    {
      "type": "Feature",
      "geometry": {
        "type": "Point",
        "coordinates": [
          46.3008333333,
          38.0736111111
        ]
      },
      "properties": {
        "site_id": 1346,
        "name": "Tabriz Historic Bazaar Complex",
        "country_iso2": "IR",
        "category": "Cultural",
        "http_url": "https://whc.unesco.org/en/list/1346",
        "in_danger": false,
        "warning_level": 2,
        "conflict_count": 0,
        "eq_level": "MED",
        "fl_level": "LOW",
        "score_in_danger": 0,
        "score_travel": 3.0,
        "score_conflict": 0.0,
        "score_natural": 0.6666666666666666,
        "total_score": 3.67,
        "threat_level": "medium",
        "threat_label": "Medium",
        "threat_color": "#fdae61"
      }
    },
    {
      "type": "Feature",
      "geometry": {
        "type": "Point",
        "coordinates": [
          52.5252777778,
          29.6361111111
        ]
      },
      "properties": {
        "site_id": 1372,
        "name": "The Persian Garden",
        "country_iso2": "IR",
        "category": "Cultural",
        "http_url": "https://whc.unesco.org/en/list/1372",
        "in_danger": false,
        "warning_level": 2,
        "conflict_count": 0,
        "eq_level": "MED",
        "fl_level": "MED",
        "score_in_danger": 0,
        "score_travel": 3.0,
        "score_conflict": 0.0,
        "score_natural": 0.6666666666666666,
        "total_score": 3.67,
        "threat_level": "medium",
        "threat_label": "Medium",
        "threat_color": "#fdae61"
      }
    },
    {
      "type": "Feature",
      "geometry": {
        "type": "Point",
        "coordinates": [
          44.0091666667,
          36.1911111111
        ]
      },
      "properties": {
        "site_id": 1437,
        "name": "Erbil Citadel",
        "country_iso2": "IQ",
        "category": "Cultural",
        "http_url": "https://whc.unesco.org/en/list/1437",
        "in_danger": false,
        "warning_level": 2,
        "conflict_count": 0,
        "eq_level": "MED",
        "fl_level": "LOW",
        "score_in_danger": 0,
        "score_travel": 3.0,
        "score_conflict": 0.0,
        "score_natural": 0.6666666666666666,
        "total_score": 3.67,
        "threat_level": "medium",
        "threat_label": "Medium",
        "threat_color": "#fdae61"
      }
    },
    {
      "type": "Feature",
      "geometry": {
        "type": "Point",
        "coordinates": [
          61.3277777778,
          30.5938888889
        ]
      },
      "properties": {
        "site_id": 1456,
        "name": "Shahr-i Sokhta",
        "country_iso2": "IR",
        "category": "Cultural",
        "http_url": "https://whc.unesco.org/en/list/1456",
        "in_danger": false,
        "warning_level": 2,
        "conflict_count": 0,
        "eq_level": "MED",
        "fl_level": "MED",
        "score_in_danger": 0,
        "score_travel": 3.0,
        "score_conflict": 0.0,
        "score_natural": 0.6666666666666666,
        "total_score": 3.67,
        "threat_level": "medium",
        "threat_label": "Medium",
        "threat_color": "#fdae61"
      }
    },
    {
      "type": "Feature",
      "geometry": {
        "type": "Point",
        "coordinates": [
          54.3730555556,
          31.8836111111
        ]
      },
      "properties": {
        "site_id": 1544,
        "name": "Historic City of Yazd",
        "country_iso2": "IR",
        "category": "Cultural",
        "http_url": "https://whc.unesco.org/en/list/1544",
        "in_danger": false,
        "warning_level": 2,
        "conflict_count": 0,
        "eq_level": "MED",
        "fl_level": "NDA",
        "score_in_danger": 0,
        "score_travel": 3.0,
        "score_conflict": 0.0,
        "score_natural": 0.6666666666666666,
        "total_score": 3.67,
        "threat_level": "medium",
        "threat_label": "Medium",
        "threat_color": "#fdae61"
      }
    },
    {
      "type": "Feature",
      "geometry": {
        "type": "Point",
        "coordinates": [
          52.5325416667,
          28.8521472222
        ]
      },
      "properties": {
        "site_id": 1568,
        "name": "Sassanid Archaeological Landscape of Fars Region",
        "country_iso2": "IR",
        "category": "Cultural",
        "http_url": "https://whc.unesco.org/en/list/1568",
        "in_danger": false,
        "warning_level": 2,
        "conflict_count": 0,
        "eq_level": "MED",
        "fl_level": "LOW",
        "score_in_danger": 0,
        "score_travel": 3.0,
        "score_conflict": 0.0,
        "score_natural": 0.6666666666666666,
        "total_score": 3.67,
        "threat_level": "medium",
        "threat_label": "Medium",
        "threat_color": "#fdae61"
      }
    },
    {
      "type": "Feature",
      "geometry": {
        "type": "Point",
        "coordinates": [
          53.39375,
          36.0988305555
        ]
      },
      "properties": {
        "site_id": 1584,
        "name": "Hyrcanian Forests",
        "country_iso2": "IR",
        "category": "Natural",
        "http_url": "https://whc.unesco.org/en/list/1584",
        "in_danger": false,
        "warning_level": 2,
        "conflict_count": 0,
        "eq_level": "MED",
        "fl_level": "MED",
        "score_in_danger": 0,
        "score_travel": 3.0,
        "score_conflict": 0.0,
        "score_natural": 0.6666666666666666,
        "total_score": 3.67,
        "threat_level": "medium",
        "threat_label": "Medium",
        "threat_color": "#fdae61"
      }
    },
    {
      "type": "Feature",
      "geometry": {
        "type": "Point",
        "coordinates": [
          46.1365138889,
          34.9462916666
        ]
      },
      "properties": {
        "site_id": 1647,
        "name": "Cultural Landscape of Hawraman/Uramanat",
        "country_iso2": "IR",
        "category": "Cultural",
        "http_url": "https://whc.unesco.org/en/list/1647",
        "in_danger": false,
        "warning_level": 2,
        "conflict_count": 0,
        "eq_level": "MED",
        "fl_level": "VLO",
        "score_in_danger": 0,
        "score_travel": 3.0,
        "score_conflict": 0.0,
        "score_natural": 0.6666666666666666,
        "total_score": 3.67,
        "threat_level": "medium",
        "threat_label": "Medium",
        "threat_color": "#fdae61"
      }
    },
    {
      "type": "Feature",
      "geometry": {
        "type": "Point",
        "coordinates": [
          48.5183333334,
          34.8035555556
        ]
      },
      "properties": {
        "site_id": 1716,
        "name": "Hegmataneh",
        "country_iso2": "IR",
        "category": "Cultural",
        "http_url": "https://whc.unesco.org/en/list/1716",
        "in_danger": false,
        "warning_level": 2,
        "conflict_count": 0,
        "eq_level": "MED",
        "fl_level": "MED",
        "score_in_danger": 0,
        "score_travel": 3.0,
        "score_conflict": 0.0,
        "score_natural": 0.6666666666666666,
        "total_score": 3.67,
        "threat_level": "medium",
        "threat_label": "Medium",
        "threat_color": "#fdae61"
      }
    },
    {
      "type": "Feature",
      "geometry": {
        "type": "Point",
        "coordinates": [
          35.6455555556,
          34.11917
        ]
      },
      "properties": {
        "site_id": 295,
        "name": "Byblos",
        "country_iso2": "LB",
        "category": "Cultural",
        "http_url": "https://whc.unesco.org/en/list/295",
        "in_danger": false,
        "warning_level": 1,
        "conflict_count": 3,
        "eq_level": "MED",
        "fl_level": "VLO",
        "score_in_danger": 0,
        "score_travel": 1.5,
        "score_conflict": 1.2764763213201789,
        "score_natural": 0.6666666666666666,
        "total_score": 3.44,
        "threat_level": "medium",
        "threat_label": "Medium",
        "threat_color": "#fdae61"
      }
    },
    {
      "type": "Feature",
      "geometry": {
        "type": "Point",
        "coordinates": [
          50.726375,
          36.3906472222
        ]
      },
      "properties": {
        "site_id": 1770,
        "name": "Alamūt Castle and Related Fortifications",
        "country_iso2": "IR",
        "category": "Cultural",
        "http_url": "https://whc.unesco.org/en/list/1770",
        "in_danger": false,
        "warning_level": 2,
        "conflict_count": 0,
        "eq_level": "NDA",
        "fl_level": "NDA",
        "score_in_danger": 0,
        "score_travel": 3.0,
        "score_conflict": 0.0,
        "score_natural": 0.0,
        "total_score": 3.0,
        "threat_level": "low",
        "threat_label": "Low",
        "threat_color": "#1a9641"
      }
    },
    {
      "type": "Feature",
      "geometry": {
        "type": "Point",
        "coordinates": [
          34.9,
          31.6011111111
        ]
      },
      "properties": {
        "site_id": 1370,
        "name": "Caves of Maresha and Bet-Guvrin in the Judean Lowlands as a Microcosm of the Land of the Caves",
        "country_iso2": "IL",
        "category": "Cultural",
        "http_url": "https://whc.unesco.org/en/list/1370",
        "in_danger": false,
        "warning_level": 0,
        "conflict_count": 11,
        "eq_level": "MED",
        "fl_level": "VLO",
        "score_in_danger": 0,
        "score_travel": 0.0,
        "score_conflict": 2.2880598724956656,
        "score_natural": 0.6666666666666666,
        "total_score": 2.95,
        "threat_level": "low",
        "threat_label": "Low",
        "threat_color": "#1a9641"
      }
    },
    {
      "type": "Feature",
      "geometry": {
        "type": "Point",
        "coordinates": [
          35.1269444444,
          32.7022222222
        ]
      },
      "properties": {
        "site_id": 1471,
        "name": "Necropolis of Bet She’arim: A Landmark of Jewish Renewal",
        "country_iso2": "IL",
        "category": "Cultural",
        "http_url": "https://whc.unesco.org/en/list/1471",
        "in_danger": false,
        "warning_level": 0,
        "conflict_count": 8,
        "eq_level": "MED",
        "fl_level": "VLO",
        "score_in_danger": 0,
        "score_travel": 0.0,
        "score_conflict": 2.023167102350973,
        "score_natural": 0.6666666666666666,
        "total_score": 2.69,
        "threat_level": "low",
        "threat_label": "Low",
        "threat_color": "#1a9641"
      }
    },
    {
      "type": "Feature",
      "geometry": {
        "type": "Point",
        "coordinates": [
          31.2610555556,
          29.8555
        ]
      },
      "properties": {
        "site_id": 86,
        "name": "Memphis and its Necropolis – the Pyramid Fields from Giza to Dahshur",
        "country_iso2": "EG",
        "category": "Cultural",
        "http_url": "https://whc.unesco.org/en/list/86",
        "in_danger": false,
        "warning_level": 1,
        "conflict_count": 0,
        "eq_level": "LOW",
        "fl_level": "HIG",
        "score_in_danger": 0,
        "score_travel": 1.5,
        "score_conflict": 0.0,
        "score_natural": 1.0,
        "total_score": 2.5,
        "threat_level": "low",
        "threat_label": "Low",
        "threat_color": "#1a9641"
      }
    },
    {
      "type": "Feature",
      "geometry": {
        "type": "Point",
        "coordinates": [
          31.6258055556,
          22.3372222222
        ]
      },
      "properties": {
        "site_id": 88,
        "name": "Nubian Monuments from Abu Simbel to Philae",
        "country_iso2": "EG",
        "category": "Cultural",
        "http_url": "https://whc.unesco.org/en/list/88",
        "in_danger": false,
        "warning_level": 1,
        "conflict_count": 0,
        "eq_level": "LOW",
        "fl_level": "HIG",
        "score_in_danger": 0,
        "score_travel": 1.5,
        "score_conflict": 0.0,
        "score_natural": 1.0,
        "total_score": 2.5,
        "threat_level": "low",
        "threat_label": "Low",
        "threat_color": "#1a9641"
      }
    },
    {
      "type": "Feature",
      "geometry": {
        "type": "Point",
        "coordinates": [
          31.2334444444,
          30.0066666667
        ]
      },
      "properties": {
        "site_id": 89,
        "name": "Historic Cairo",
        "country_iso2": "EG",
        "category": "Cultural",
        "http_url": "https://whc.unesco.org/en/list/89",
        "in_danger": false,
        "warning_level": 1,
        "conflict_count": 0,
        "eq_level": "LOW",
        "fl_level": "HIG",
        "score_in_danger": 0,
        "score_travel": 1.5,
        "score_conflict": 0.0,
        "score_natural": 1.0,
        "total_score": 2.5,
        "threat_level": "low",
        "threat_label": "Low",
        "threat_color": "#1a9641"
      }
    },
    {
      "type": "Feature",
      "geometry": {
        "type": "Point",
        "coordinates": [
          30.18333,
          29.33333
        ]
      },
      "properties": {
        "site_id": 1186,
        "name": "Wadi Al-Hitan (Whale Valley)",
        "country_iso2": "EG",
        "category": "Natural",
        "http_url": "https://whc.unesco.org/en/list/1186",
        "in_danger": false,
        "warning_level": 1,
        "conflict_count": 0,
        "eq_level": "MED",
        "fl_level": "HIG",
        "score_in_danger": 0,
        "score_travel": 1.5,
        "score_conflict": 0.0,
        "score_natural": 1.0,
        "total_score": 2.5,
        "threat_level": "low",
        "threat_label": "Low",
        "threat_color": "#1a9641"
      }
    },
    {
      "type": "Feature",
      "geometry": {
        "type": "Point",
        "coordinates": [
          35.0688888889,
          32.9216666667
        ]
      },
      "properties": {
        "site_id": 1042,
        "name": "Old City of Acre",
        "country_iso2": "IL",
        "category": "Cultural",
        "http_url": "https://whc.unesco.org/en/list/1042",
        "in_danger": false,
        "warning_level": 0,
        "conflict_count": 6,
        "eq_level": "MED",
        "fl_level": "VLO",
        "score_in_danger": 0,
        "score_travel": 0.0,
        "score_conflict": 1.791761041774094,
        "score_natural": 0.6666666666666666,
        "total_score": 2.46,
        "threat_level": "low",
        "threat_label": "Low",
        "threat_color": "#1a9641"
      }
    },
    {
      "type": "Feature",
      "geometry": {
        "type": "Point",
        "coordinates": [
          32.6390277777,
          25.6998611111
        ]
      },
      "properties": {
        "site_id": 87,
        "name": "Ancient Thebes with its Necropolis",
        "country_iso2": "EG",
        "category": "Cultural",
        "http_url": "https://whc.unesco.org/en/list/87",
        "in_danger": false,
        "warning_level": 1,
        "conflict_count": 0,
        "eq_level": "VLO",
        "fl_level": "MED",
        "score_in_danger": 0,
        "score_travel": 1.5,
        "score_conflict": 0.0,
        "score_natural": 0.6666666666666666,
        "total_score": 2.17,
        "threat_level": "low",
        "threat_label": "Low",
        "threat_color": "#1a9641"
      }
    },
    {
      "type": "Feature",
      "geometry": {
        "type": "Point",
        "coordinates": [
          33.97543,
          28.55623
        ]
      },
      "properties": {
        "site_id": 954,
        "name": "Saint Catherine Area",
        "country_iso2": "EG",
        "category": "Cultural",
        "http_url": "https://whc.unesco.org/en/list/954",
        "in_danger": false,
        "warning_level": 1,
        "conflict_count": 0,
        "eq_level": "MED",
        "fl_level": "VLO",
        "score_in_danger": 0,
        "score_travel": 1.5,
        "score_conflict": 0.0,
        "score_natural": 0.6666666666666666,
        "total_score": 2.17,
        "threat_level": "low",
        "threat_label": "Low",
        "threat_color": "#1a9641"
      }
    },
    {
      "type": "Feature",
      "geometry": {
        "type": "Point",
        "coordinates": [
          34.8408333333,
          31.2447222222
        ]
      },
      "properties": {
        "site_id": 1108,
        "name": "Biblical Tels - Megiddo, Hazor, Beer Sheba",
        "country_iso2": "IL",
        "category": "Cultural",
        "http_url": "https://whc.unesco.org/en/list/1108",
        "in_danger": false,
        "warning_level": 0,
        "conflict_count": 2,
        "eq_level": "MED",
        "fl_level": "VLO",
        "score_in_danger": 0,
        "score_travel": 0.0,
        "score_conflict": 1.0115835511754865,
        "score_natural": 0.6666666666666666,
        "total_score": 1.68,
        "threat_level": "low",
        "threat_label": "Low",
        "threat_color": "#1a9641"
      }
    },
    {
      "type": "Feature",
      "geometry": {
        "type": "Point",
        "coordinates": [
          34.7741666667,
          32.0777777778
        ]
      },
      "properties": {
        "site_id": 1096,
        "name": "White City of Tel-Aviv – the Modern Movement",
        "country_iso2": "IL",
        "category": "Cultural",
        "http_url": "https://whc.unesco.org/en/list/1096",
        "in_danger": false,
        "warning_level": 0,
        "conflict_count": 3,
        "eq_level": "LOW",
        "fl_level": "LOW",
        "score_in_danger": 0,
        "score_travel": 0.0,
        "score_conflict": 1.2764763213201789,
        "score_natural": 0.3333333333333333,
        "total_score": 1.61,
        "threat_level": "low",
        "threat_label": "Low",
        "threat_color": "#1a9641"
      }
    },
    {
      "type": "Feature",
      "geometry": {
        "type": "Point",
        "coordinates": [
          35.44333,
          30.33056
        ]
      },
      "properties": {
        "site_id": 326,
        "name": "Petra",
        "country_iso2": "JO",
        "category": "Cultural",
        "http_url": "https://whc.unesco.org/en/list/326",
        "in_danger": false,
        "warning_level": 0,
        "conflict_count": 0,
        "eq_level": "MED",
        "fl_level": "HIG",
        "score_in_danger": 0,
        "score_travel": 0.0,
        "score_conflict": 0.0,
        "score_natural": 1.0,
        "total_score": 1.0,
        "threat_level": "low",
        "threat_label": "Low",
        "threat_color": "#1a9641"
      }
    },
    {
      "type": "Feature",
      "geometry": {
        "type": "Point",
        "coordinates": [
          35.7283055556,
          32.0426111111
        ]
      },
      "properties": {
        "site_id": 689,
        "name": "As-Salt - The Place of Tolerance and Urban Hospitality",
        "country_iso2": "JO",
        "category": "Cultural",
        "http_url": "https://whc.unesco.org/en/list/689",
        "in_danger": false,
        "warning_level": 0,
        "conflict_count": 0,
        "eq_level": "LOW",
        "fl_level": "HIG",
        "score_in_danger": 0,
        "score_travel": 0.0,
        "score_conflict": 0.0,
        "score_natural": 1.0,
        "total_score": 1.0,
        "threat_level": "low",
        "threat_label": "Low",
        "threat_color": "#1a9641"
      }
    },
    {
      "type": "Feature",
      "geometry": {
        "type": "Point",
        "coordinates": [
          34.9872777777,
          32.8145944444
        ]
      },
      "properties": {
        "site_id": 1220,
        "name": "Bahá’i Holy Places in Haifa and the Western Galilee",
        "country_iso2": "IL",
        "category": "Cultural",
        "http_url": "https://whc.unesco.org/en/list/1220",
        "in_danger": false,
        "warning_level": 0,
        "conflict_count": 0,
        "eq_level": "MED",
        "fl_level": "HIG",
        "score_in_danger": 0,
        "score_travel": 0.0,
        "score_conflict": 0.0,
        "score_natural": 1.0,
        "total_score": 1.0,
        "threat_level": "low",
        "threat_label": "Low",
        "threat_color": "#1a9641"
      }
    },
    {
      "type": "Feature",
      "geometry": {
        "type": "Point",
        "coordinates": [
          34.9680555556,
          32.6686111111
        ]
      },
      "properties": {
        "site_id": 1393,
        "name": "Sites of Human Evolution at Mount Carmel: The Nahal Me’arot / Wadi el-Mughara Caves",
        "country_iso2": "IL",
        "category": "Cultural",
        "http_url": "https://whc.unesco.org/en/list/1393",
        "in_danger": false,
        "warning_level": 0,
        "conflict_count": 0,
        "eq_level": "MED",
        "fl_level": "HIG",
        "score_in_danger": 0,
        "score_travel": 0.0,
        "score_conflict": 0.0,
        "score_natural": 1.0,
        "total_score": 1.0,
        "threat_level": "low",
        "threat_label": "Low",
        "threat_color": "#1a9641"
      }
    },
    {
      "type": "Feature",
      "geometry": {
        "type": "Point",
        "coordinates": [
          35.5527777778,
          31.8372222222
        ]
      },
      "properties": {
        "site_id": 1446,
        "name": "Baptism Site “Bethany Beyond the Jordan” (Al-Maghtas)",
        "country_iso2": "JO",
        "category": "Cultural",
        "http_url": "https://whc.unesco.org/en/list/1446",
        "in_danger": false,
        "warning_level": 0,
        "conflict_count": 0,
        "eq_level": "LOW",
        "fl_level": "HIG",
        "score_in_danger": 0,
        "score_travel": 0.0,
        "score_conflict": 0.0,
        "score_natural": 1.0,
        "total_score": 1.0,
        "threat_level": "low",
        "threat_label": "Low",
        "threat_color": "#1a9641"
      }
    },
    {
      "type": "Feature",
      "geometry": {
        "type": "Point",
        "coordinates": [
          36.37,
          32.3269444444
        ]
      },
      "properties": {
        "site_id": 1721,
        "name": "Umm Al-Jimāl",
        "country_iso2": "JO",
        "category": "Cultural",
        "http_url": "https://whc.unesco.org/en/list/1721",
        "in_danger": false,
        "warning_level": 0,
        "conflict_count": 1,
        "eq_level": "LOW",
        "fl_level": "LOW",
        "score_in_danger": 0,
        "score_travel": 0.0,
        "score_conflict": 0.6382381606600894,
        "score_natural": 0.3333333333333333,
        "total_score": 0.97,
        "threat_level": "low",
        "threat_label": "Low",
        "threat_color": "#1a9641"
      }
    },
    {
      "type": "Feature",
      "geometry": {
        "type": "Point",
        "coordinates": [
          36.5873055556,
          31.8018055556
        ]
      },
      "properties": {
        "site_id": 327,
        "name": "Quseir Amra",
        "country_iso2": "JO",
        "category": "Cultural",
        "http_url": "https://whc.unesco.org/en/list/327",
        "in_danger": false,
        "warning_level": 0,
        "conflict_count": 0,
        "eq_level": "LOW",
        "fl_level": "MED",
        "score_in_danger": 0,
        "score_travel": 0.0,
        "score_conflict": 0.0,
        "score_natural": 0.6666666666666666,
        "total_score": 0.67,
        "threat_level": "low",
        "threat_label": "Low",
        "threat_color": "#1a9641"
      }
    },
    {
      "type": "Feature",
      "geometry": {
        "type": "Point",
        "coordinates": [
          57.30111,
          22.96417
        ]
      },
      "properties": {
        "site_id": 433,
        "name": "Bahla Fort",
        "country_iso2": "OM",
        "category": "Cultural",
        "http_url": "https://whc.unesco.org/en/list/433",
        "in_danger": false,
        "warning_level": 0,
        "conflict_count": 0,
        "eq_level": "MED",
        "fl_level": "LOW",
        "score_in_danger": 0,
        "score_travel": 0.0,
        "score_conflict": 0.0,
        "score_natural": 0.6666666666666666,
        "total_score": 0.67,
        "threat_level": "low",
        "threat_label": "Low",
        "threat_color": "#1a9641"
      }
    },
    {
      "type": "Feature",
      "geometry": {
        "type": "Point",
        "coordinates": [
          56.745,
          23.26986
        ]
      },
      "properties": {
        "site_id": 434,
        "name": "Archaeological Sites of Bat, Al-Khutm and Al-Ayn",
        "country_iso2": "OM",
        "category": "Cultural",
        "http_url": "https://whc.unesco.org/en/list/434",
        "in_danger": false,
        "warning_level": 0,
        "conflict_count": 0,
        "eq_level": "MED",
        "fl_level": "LOW",
        "score_in_danger": 0,
        "score_travel": 0.0,
        "score_conflict": 0.0,
        "score_natural": 0.6666666666666666,
        "total_score": 0.67,
        "threat_level": "low",
        "threat_label": "Low",
        "threat_color": "#1a9641"
      }
    },
    {
      "type": "Feature",
      "geometry": {
        "type": "Point",
        "coordinates": [
          35.3536111111,
          31.3155555556
        ]
      },
      "properties": {
        "site_id": 1040,
        "name": "Masada",
        "country_iso2": "IL",
        "category": "Cultural",
        "http_url": "https://whc.unesco.org/en/list/1040",
        "in_danger": false,
        "warning_level": 0,
        "conflict_count": 0,
        "eq_level": "MED",
        "fl_level": "VLO",
        "score_in_danger": 0,
        "score_travel": 0.0,
        "score_conflict": 0.0,
        "score_natural": 0.6666666666666666,
        "total_score": 0.67,
        "threat_level": "low",
        "threat_label": "Low",
        "threat_color": "#1a9641"
      }
    },
    {
      "type": "Feature",
      "geometry": {
        "type": "Point",
        "coordinates": [
          35.0091666667,
          30.5738888889
        ]
      },
      "properties": {
        "site_id": 1107,
        "name": "Incense Route - Desert Cities in the Negev",
        "country_iso2": "IL",
        "category": "Cultural",
        "http_url": "https://whc.unesco.org/en/list/1107",
        "in_danger": false,
        "warning_level": 0,
        "conflict_count": 0,
        "eq_level": "MED",
        "fl_level": "VLO",
        "score_in_danger": 0,
        "score_travel": 0.0,
        "score_conflict": 0.0,
        "score_natural": 0.6666666666666666,
        "total_score": 0.67,
        "threat_level": "low",
        "threat_label": "Low",
        "threat_color": "#1a9641"
      }
    },
    {
      "type": "Feature",
      "geometry": {
        "type": "Point",
        "coordinates": [
          57.7666666667,
          22.7333333333
        ]
      },
      "properties": {
        "site_id": 1207,
        "name": "<i>Aflaj</i> Irrigation Systems of Oman",
        "country_iso2": "OM",
        "category": "Cultural",
        "http_url": "https://whc.unesco.org/en/list/1207",
        "in_danger": false,
        "warning_level": 0,
        "conflict_count": 0,
        "eq_level": "MED",
        "fl_level": "LOW",
        "score_in_danger": 0,
        "score_travel": 0.0,
        "score_conflict": 0.0,
        "score_natural": 0.6666666666666666,
        "total_score": 0.67,
        "threat_level": "low",
        "threat_label": "Low",
        "threat_color": "#1a9641"
      }
    },
    {
      "type": "Feature",
      "geometry": {
        "type": "Point",
        "coordinates": [
          37.955,
          26.7836111111
        ]
      },
      "properties": {
        "site_id": 1293,
        "name": "Hegra Archaeological Site (al-Hijr / Madā ͐ in Ṣāliḥ)",
        "country_iso2": "SA",
        "category": "Cultural",
        "http_url": "https://whc.unesco.org/en/list/1293",
        "in_danger": false,
        "warning_level": 0,
        "conflict_count": 0,
        "eq_level": "MED",
        "fl_level": "MED",
        "score_in_danger": 0,
        "score_travel": 0.0,
        "score_conflict": 0.0,
        "score_natural": 0.6666666666666666,
        "total_score": 0.67,
        "threat_level": "low",
        "threat_label": "Low",
        "threat_color": "#1a9641"
      }
    },
    {
      "type": "Feature",
      "geometry": {
        "type": "Point",
        "coordinates": [
          46.5724666667,
          24.7341333333
        ]
      },
      "properties": {
        "site_id": 1329,
        "name": "At-Turaif District in ad-Dir'iyah",
        "country_iso2": "SA",
        "category": "Cultural",
        "http_url": "https://whc.unesco.org/en/list/1329",
        "in_danger": false,
        "warning_level": 0,
        "conflict_count": 0,
        "eq_level": "MED",
        "fl_level": "MED",
        "score_in_danger": 0,
        "score_travel": 0.0,
        "score_conflict": 0.0,
        "score_natural": 0.6666666666666666,
        "total_score": 0.67,
        "threat_level": "low",
        "threat_label": "Low",
        "threat_color": "#1a9641"
      }
    },
    {
      "type": "Feature",
      "geometry": {
        "type": "Point",
        "coordinates": [
          55.80663,
          24.067951
        ]
      },
      "properties": {
        "site_id": 1343,
        "name": "Cultural Sites of Al Ain (Hafit, Hili, Bidaa Bint Saud and Oases Areas)",
        "country_iso2": "AE",
        "category": "Cultural",
        "http_url": "https://whc.unesco.org/en/list/1343",
        "in_danger": false,
        "warning_level": 0,
        "conflict_count": 0,
        "eq_level": "MED",
        "fl_level": "MED",
        "score_in_danger": 0,
        "score_travel": 0.0,
        "score_conflict": 0.0,
        "score_natural": 0.6666666666666666,
        "total_score": 0.67,
        "threat_level": "low",
        "threat_label": "Low",
        "threat_color": "#1a9641"
      }
    },
    {
      "type": "Feature",
      "geometry": {
        "type": "Point",
        "coordinates": [
          35.4338888889,
          29.6397222222
        ]
      },
      "properties": {
        "site_id": 1377,
        "name": "Wadi Rum Protected Area",
        "country_iso2": "JO",
        "category": "Mixed",
        "http_url": "https://whc.unesco.org/en/list/1377",
        "in_danger": false,
        "warning_level": 0,
        "conflict_count": 0,
        "eq_level": "MED",
        "fl_level": "LOW",
        "score_in_danger": 0,
        "score_travel": 0.0,
        "score_conflict": 0.0,
        "score_natural": 0.6666666666666666,
        "total_score": 0.67,
        "threat_level": "low",
        "threat_label": "Low",
        "threat_color": "#1a9641"
      }
    },
    {
      "type": "Feature",
      "geometry": {
        "type": "Point",
        "coordinates": [
          39.8916666667,
          26.1536111111
        ]
      },
      "properties": {
        "site_id": 1472,
        "name": "Rock Art in the Hail Region of Saudi Arabia",
        "country_iso2": "SA",
        "category": "Cultural",
        "http_url": "https://whc.unesco.org/en/list/1472",
        "in_danger": false,
        "warning_level": 0,
        "conflict_count": 0,
        "eq_level": "MED",
        "fl_level": "MED",
        "score_in_danger": 0,
        "score_travel": 0.0,
        "score_conflict": 0.0,
        "score_natural": 0.6666666666666666,
        "total_score": 0.67,
        "threat_level": "low",
        "threat_label": "Low",
        "threat_color": "#1a9641"
      }
    },
    {
      "type": "Feature",
      "geometry": {
        "type": "Point",
        "coordinates": [
          59.3781111111,
          22.6952222222
        ]
      },
      "properties": {
        "site_id": 1537,
        "name": "Ancient City of Qalhat",
        "country_iso2": "OM",
        "category": "Cultural",
        "http_url": "https://whc.unesco.org/en/list/1537",
        "in_danger": false,
        "warning_level": 0,
        "conflict_count": 0,
        "eq_level": "MED",
        "fl_level": "LOW",
        "score_in_danger": 0,
        "score_travel": 0.0,
        "score_conflict": 0.0,
        "score_natural": 0.6666666666666666,
        "total_score": 0.67,
        "threat_level": "low",
        "threat_label": "Low",
        "threat_color": "#1a9641"
      }
    },
    {
      "type": "Feature",
      "geometry": {
        "type": "Point",
        "coordinates": [
          49.5769166667,
          25.368025
        ]
      },
      "properties": {
        "site_id": 1563,
        "name": "Al-Ahsa Oasis, an Evolving Cultural Landscape",
        "country_iso2": "SA",
        "category": "Cultural",
        "http_url": "https://whc.unesco.org/en/list/1563",
        "in_danger": false,
        "warning_level": 0,
        "conflict_count": 0,
        "eq_level": "MED",
        "fl_level": "MED",
        "score_in_danger": 0,
        "score_travel": 0.0,
        "score_conflict": 0.0,
        "score_natural": 0.6666666666666666,
        "total_score": 0.67,
        "threat_level": "low",
        "threat_label": "Low",
        "threat_color": "#1a9641"
      }
    },
    {
      "type": "Feature",
      "geometry": {
        "type": "Point",
        "coordinates": [
          45.5983333333,
          19.3638888889
        ]
      },
      "properties": {
        "site_id": 1699,
        "name": "‘Uruq Bani Ma’arid",
        "country_iso2": "SA",
        "category": "Natural",
        "http_url": "https://whc.unesco.org/en/list/1699",
        "in_danger": false,
        "warning_level": 0,
        "conflict_count": 0,
        "eq_level": "MED",
        "fl_level": "MED",
        "score_in_danger": 0,
        "score_travel": 0.0,
        "score_conflict": 0.0,
        "score_natural": 0.6666666666666666,
        "total_score": 0.67,
        "threat_level": "low",
        "threat_label": "Low",
        "threat_color": "#1a9641"
      }
    },
    {
      "type": "Feature",
      "geometry": {
        "type": "Point",
        "coordinates": [
          45.1633888889,
          19.7649166667
        ]
      },
      "properties": {
        "site_id": 1712,
        "name": "The Cultural Landscape of Al-Faw Archaeological Area",
        "country_iso2": "SA",
        "category": "Cultural",
        "http_url": "https://whc.unesco.org/en/list/1712",
        "in_danger": false,
        "warning_level": 0,
        "conflict_count": 0,
        "eq_level": "MED",
        "fl_level": "MED",
        "score_in_danger": 0,
        "score_travel": 0.0,
        "score_conflict": 0.0,
        "score_natural": 0.6666666666666666,
        "total_score": 0.67,
        "threat_level": "low",
        "threat_label": "Low",
        "threat_color": "#1a9641"
      }
    },
    {
      "type": "Feature",
      "geometry": {
        "type": "Point",
        "coordinates": [
          55.8065833333,
          25.0828055556
        ]
      },
      "properties": {
        "site_id": 1735,
        "name": "Faya Palaeolandscape",
        "country_iso2": "AE",
        "category": "Cultural",
        "http_url": "https://whc.unesco.org/en/list/1735",
        "in_danger": false,
        "warning_level": 0,
        "conflict_count": 0,
        "eq_level": "MED",
        "fl_level": "MED",
        "score_in_danger": 0,
        "score_travel": 0.0,
        "score_conflict": 0.0,
        "score_natural": 0.6666666666666666,
        "total_score": 0.67,
        "threat_level": "low",
        "threat_label": "Low",
        "threat_color": "#1a9641"
      }
    },
    {
      "type": "Feature",
      "geometry": {
        "type": "Point",
        "coordinates": [
          54.05,
          17.0166666667
        ]
      },
      "properties": {
        "site_id": 1010,
        "name": "Land of Frankincense",
        "country_iso2": "OM",
        "category": "Cultural",
        "http_url": "https://whc.unesco.org/en/list/1010",
        "in_danger": false,
        "warning_level": 0,
        "conflict_count": 0,
        "eq_level": "LOW",
        "fl_level": "LOW",
        "score_in_danger": 0,
        "score_travel": 0.0,
        "score_conflict": 0.0,
        "score_natural": 0.3333333333333333,
        "total_score": 0.33,
        "threat_level": "low",
        "threat_label": "Low",
        "threat_color": "#1a9641"
      }
    },
    {
      "type": "Feature",
      "geometry": {
        "type": "Point",
        "coordinates": [
          35.9166666667,
          31.4833333333
        ]
      },
      "properties": {
        "site_id": 1093,
        "name": "Um er-Rasas (Kastrom Mefa'a)",
        "country_iso2": "JO",
        "category": "Cultural",
        "http_url": "https://whc.unesco.org/en/list/1093",
        "in_danger": false,
        "warning_level": 0,
        "conflict_count": 0,
        "eq_level": "LOW",
        "fl_level": "LOW",
        "score_in_danger": 0,
        "score_travel": 0.0,
        "score_conflict": 0.0,
        "score_natural": 0.3333333333333333,
        "total_score": 0.33,
        "threat_level": "low",
        "threat_label": "Low",
        "threat_color": "#1a9641"
      }
    },
    {
      "type": "Feature",
      "geometry": {
        "type": "Point",
        "coordinates": [
          39.1875,
          21.4838888889
        ]
      },
      "properties": {
        "site_id": 1361,
        "name": "Historic Jeddah, the Gate to Makkah",
        "country_iso2": "SA",
        "category": "Cultural",
        "http_url": "https://whc.unesco.org/en/list/1361",
        "in_danger": false,
        "warning_level": 0,
        "conflict_count": 0,
        "eq_level": "LOW",
        "fl_level": "LOW",
        "score_in_danger": 0,
        "score_travel": 0.0,
        "score_conflict": 0.0,
        "score_natural": 0.3333333333333333,
        "total_score": 0.33,
        "threat_level": "low",
        "threat_label": "Low",
        "threat_color": "#1a9641"
      }
    },
    {
      "type": "Feature",
      "geometry": {
        "type": "Point",
        "coordinates": [
          44.4628583333,
          18.24375
        ]
      },
      "properties": {
        "site_id": 1619,
        "name": "Ḥimā Cultural Area",
        "country_iso2": "SA",
        "category": "Cultural",
        "http_url": "https://whc.unesco.org/en/list/1619",
        "in_danger": false,
        "warning_level": 0,
        "conflict_count": 0,
        "eq_level": "VLO",
        "fl_level": "LOW",
        "score_in_danger": 0,
        "score_travel": 0.0,
        "score_conflict": 0.0,
        "score_natural": 0.3333333333333333,
        "total_score": 0.33,
        "threat_level": "low",
        "threat_label": "Low",
        "threat_color": "#1a9641"
      }
    },
    {
      "type": "Feature",
      "geometry": {
        "type": "Point",
        "coordinates": [
          50.5183333333,
          26.2344444444
        ]
      },
      "properties": {
        "site_id": 1192,
        "name": "Qal’at al-Bahrain – Ancient Harbour and Capital of Dilmun",
        "country_iso2": "BH",
        "category": "Cultural",
        "http_url": "https://whc.unesco.org/en/list/1192",
        "in_danger": false,
        "warning_level": 0,
        "conflict_count": 0,
        "eq_level": "VLO",
        "fl_level": "VLO",
        "score_in_danger": 0,
        "score_travel": 0.0,
        "score_conflict": 0.0,
        "score_natural": 0.0,
        "total_score": 0.0,
        "threat_level": "low",
        "threat_label": "Low",
        "threat_color": "#1a9641"
      }
    },
    {
      "type": "Feature",
      "geometry": {
        "type": "Point",
        "coordinates": [
          50.61331,
          26.24082
        ]
      },
      "properties": {
        "site_id": 1364,
        "name": "Pearling, Testimony of an Island Economy",
        "country_iso2": "BH",
        "category": "Cultural",
        "http_url": "https://whc.unesco.org/en/list/1364",
        "in_danger": false,
        "warning_level": 0,
        "conflict_count": 0,
        "eq_level": "NDA",
        "fl_level": "VLO",
        "score_in_danger": 0,
        "score_travel": 0.0,
        "score_conflict": 0.0,
        "score_natural": 0.0,
        "total_score": 0.0,
        "threat_level": "low",
        "threat_label": "Low",
        "threat_color": "#1a9641"
      }
    },
    {
      "type": "Feature",
      "geometry": {
        "type": "Point",
        "coordinates": [
          51.0297222222,
          25.9780555556
        ]
      },
      "properties": {
        "site_id": 1402,
        "name": "Al Zubarah Archaeological Site",
        "country_iso2": "QA",
        "category": "Cultural",
        "http_url": "https://whc.unesco.org/en/list/1402",
        "in_danger": false,
        "warning_level": 0,
        "conflict_count": 0,
        "eq_level": "VLO",
        "fl_level": "VLO",
        "score_in_danger": 0,
        "score_travel": 0.0,
        "score_conflict": 0.0,
        "score_natural": 0.0,
        "total_score": 0.0,
        "threat_level": "low",
        "threat_label": "Low",
        "threat_color": "#1a9641"
      }
    },
    {
      "type": "Feature",
      "geometry": {
        "type": "Point",
        "coordinates": [
          50.5055555556,
          26.075
        ]
      },
      "properties": {
        "site_id": 1542,
        "name": "Dilmun Burial Mounds",
        "country_iso2": "BH",
        "category": "Cultural",
        "http_url": "https://whc.unesco.org/en/list/1542",
        "in_danger": false,
        "warning_level": 0,
        "conflict_count": 0,
        "eq_level": "VLO",
        "fl_level": "VLO",
        "score_in_danger": 0,
        "score_travel": 0.0,
        "score_conflict": 0.0,
        "score_natural": 0.0,
        "total_score": 0.0,
        "threat_level": "low",
        "threat_label": "Low",
        "threat_color": "#1a9641"
      }
    },
    {
      "type": "Feature",
      "geometry": {
        "type": "Point",
        "coordinates": [
          56.2657916667,
          25.4823305556
        ]
      },
      "properties": {
        "site_id": 1724,
        "name": "Wadi Wurayah",
        "country_iso2": "AE",
        "category": "Natural",
        "http_url": "https://whc.unesco.org/en/list/1724",
        "in_danger": false,
        "warning_level": 0,
        "conflict_count": 0,
        "eq_level": "NDA",
        "fl_level": "NDA",
        "score_in_danger": 0,
        "score_travel": 0.0,
        "score_conflict": 0.0,
        "score_natural": 0.0,
        "total_score": 0.0,
        "threat_level": "low",
        "threat_label": "Low",
        "threat_color": "#1a9641"
      }
    },
    {
      "type": "Feature",
      "geometry": {
        "type": "Point",
        "coordinates": [
          34.9755555556,
          29.4297222223
        ]
      },
      "properties": {
        "site_id": 1742,
        "name": "Aqaba Marine Reserve",
        "country_iso2": "JO",
        "category": "Natural",
        "http_url": "https://whc.unesco.org/en/list/1742",
        "in_danger": false,
        "warning_level": 0,
        "conflict_count": 0,
        "eq_level": "NDA",
        "fl_level": "NDA",
        "score_in_danger": 0,
        "score_travel": 0.0,
        "score_conflict": 0.0,
        "score_natural": 0.0,
        "total_score": 0.0,
        "threat_level": "low",
        "threat_label": "Low",
        "threat_color": "#1a9641"
      }
    }
  ]
}